{"type":"FeatureCollection","features":[{"type":"Feature","geometry":{"type":"Point","coordinates":[7.05065278,51.40333333]},"properties":{"name":"Abgunst","stadtteil":"Heisingen","betrieb_von":"1799","betrieb_bis":"1858","liste_von":"1799","liste_bis":"1858","plan_1935":"","quelle":"https://de.wikipedia.org/wiki/Zeche_Abgunst","status_1936":"stillgelegt","aktiv_1936":false,"jahre_unbekannt":false,"jahre_widerspruch":false}},{"type":"Feature","geometry":{"type":"Point","coordinates":[7.08704,51.38244]},"properties":{"name":"Adler","stadtteil":"Kupferdreh","betrieb_von":"1908","betrieb_bis":"1930","liste_von":"1906","liste_bis":"1930","plan_1935":"Zeche Adler","quelle":"https://de.wikipedia.org/wiki/Zeche_Adler_(Essen)","status_1936":"stillgelegt","aktiv_1936":false,"jahre_unbekannt":false,"jahre_widerspruch":true}},{"type":"Feature","geometry":{"type":"Point","coordinates":[7.031025,51.386069]},"properties":{"name":"Aline","stadtteil":"Werden-Fischlaken","betrieb_von":"1850","betrieb_bis":"1875","liste_von":"1850","liste_bis":"1875","plan_1935":"ehem. Zeche Paul u. Aline","quelle":"https://de.wikipedia.org/wiki/Zeche_Aline","status_1936":"stillgelegt","aktiv_1936":false,"jahre_unbekannt":false,"jahre_widerspruch":false}},{"type":"Feature","geometry":{"type":"Point","coordinates":[7.113804,51.413463]},"properties":{"name":"Alte Aproche","stadtteil":"Burgaltendorf","betrieb_von":"","betrieb_bis":"1876","liste_von":"","liste_bis":"1876","plan_1935":"","quelle":"https://de.wikipedia.org/wiki/Alte_Aproche","status_1936":"stillgelegt","aktiv_1936":false,"jahre_unbekannt":true,"jahre_widerspruch":false}},{"type":"Feature","geometry":{"type":"Point","coordinates":[7.126714,51.421251]},"properties":{"name":"Alte Sackberg","stadtteil":"Burgaltendorf","betrieb_von":"1791","betrieb_bis":"1861","liste_von":"1791","liste_bis":"1860","plan_1935":"","quelle":"https://de.wikipedia.org/wiki/Zeche_Alte_Sackberg","status_1936":"stillgelegt","aktiv_1936":false,"jahre_unbekannt":false,"jahre_widerspruch":true}},{"type":"Feature","geometry":{"type":"Point","coordinates":[7.125297,51.414216]},"properties":{"name":"Vereinigte Alte Sackberg & Geitling","stadtteil":"Burgaltendorf","betrieb_von":"1802","betrieb_bis":"1876","liste_von":"1802","liste_bis":"1876","plan_1935":"","quelle":"https://de.wikipedia.org/wiki/Zeche_Vereinigte_Alte_Sackberg_&_Geitling","status_1936":"stillgelegt","aktiv_1936":false,"jahre_unbekannt":false,"jahre_widerspruch":false}},{"type":"Feature","geometry":{"type":"Point","coordinates":[7.136009,51.419127]},"properties":{"name":"Altendorfer Bank","stadtteil":"Burgaltendorf","betrieb_von":"1775","betrieb_bis":"1838","liste_von":"1775","liste_bis":"1838","plan_1935":"Zeche Altendorf","quelle":"https://de.wikipedia.org/wiki/Zeche_Altendorfer_Bank","status_1936":"stillgelegt","aktiv_1936":false,"jahre_unbekannt":false,"jahre_widerspruch":false}},{"type":"Feature","geometry":{"type":"Point","coordinates":[7.13731389,51.41969722]},"properties":{"name":"Altendorfer Erbstollen","stadtteil":"Burgaltendorf","betrieb_von":"1722","betrieb_bis":"1855","liste_von":"1722","liste_bis":"1855","plan_1935":"Zeche Altendorf","quelle":"https://de.wikipedia.org/wiki/Altendorfer_Erbstollen","status_1936":"stillgelegt","aktiv_1936":false,"jahre_unbekannt":false,"jahre_widerspruch":false}},{"type":"Feature","geometry":{"type":"Point","coordinates":[7.129218,51.424501]},"properties":{"name":"Altendorfer Mulde","stadtteil":"Burgaltendorf","betrieb_von":"1831","betrieb_bis":"1855","liste_von":"1831","liste_bis":"1855","plan_1935":"Zeche Altendorf","quelle":"https://de.wikipedia.org/wiki/Zeche_Altendorfer_Mulde","status_1936":"stillgelegt","aktiv_1936":false,"jahre_unbekannt":false,"jahre_widerspruch":false}},{"type":"Feature","geometry":{"type":"Point","coordinates":[7.132059,51.417309]},"properties":{"name":"Altendorf Tiefbau","stadtteil":"Burgaltendorf","betrieb_von":"1855","betrieb_bis":"1973","liste_von":"1855","liste_bis":"1914","plan_1935":"Zeche Altendorf","quelle":"https://de.wikipedia.org/wiki/Zeche_Altendorf_Tiefbau","status_1936":"stillgelegt","aktiv_1936":false,"jahre_unbekannt":false,"jahre_widerspruch":true}},{"type":"Feature","geometry":{"type":"Point","coordinates":[6.98666667,51.46722222]},"properties":{"name":"Amalie","stadtteil":"Nordviertel","betrieb_von":"1850","betrieb_bis":"1966","liste_von":"","liste_bis":"","plan_1935":"Zeche Helene u. Amalie","quelle":"https://de.wikipedia.org/wiki/Zeche_Amalie","status_1936":"aktiv","aktiv_1936":true,"jahre_unbekannt":false,"jahre_widerspruch":false}},{"type":"Feature","geometry":{"type":"Point","coordinates":[6.99722222,51.4875]},"properties":{"name":"Anna","stadtteil":"Altenessen","betrieb_von":"1851","betrieb_bis":"1911","liste_von":"1845","liste_bis":"1925","plan_1935":"Zeche Anna","quelle":"https://de.wikipedia.org/wiki/Zeche_Anna","status_1936":"stillgelegt","aktiv_1936":false,"jahre_unbekannt":false,"jahre_widerspruch":true}},{"type":"Feature","geometry":{"type":"Point","coordinates":[7.02305556,51.40861111]},"properties":{"name":"Antonius","stadtteil":"Baldeney","betrieb_von":"1780","betrieb_bis":"1834","liste_von":"1780","liste_bis":"1834","plan_1935":"","quelle":"https://de.wikipedia.org/wiki/Zeche_Antonius_(Essen)","status_1936":"stillgelegt","aktiv_1936":false,"jahre_unbekannt":false,"jahre_widerspruch":false}},{"type":"Feature","geometry":{"type":"Point","coordinates":[7.089583,51.37585]},"properties":{"name":"Augustus Erbstollen","stadtteil":"Kupferdreh","betrieb_von":"1812","betrieb_bis":"1861","liste_von":"1809","liste_bis":"1861","plan_1935":"","quelle":"https://de.wikipedia.org/wiki/Zeche_Augustus_Erbstollen","status_1936":"stillgelegt","aktiv_1936":false,"jahre_unbekannt":false,"jahre_widerspruch":true}},{"type":"Feature","geometry":{"type":"Point","coordinates":[7.087836,51.393414]},"properties":{"name":"Beisenkamp","stadtteil":"Byfang und Kupferdreh","betrieb_von":"1853","betrieb_bis":"1887","liste_von":"1802","liste_bis":"1851","plan_1935":"","quelle":"https://de.wikipedia.org/wiki/Zeche_Gilles_Antoine","status_1936":"stillgelegt","aktiv_1936":false,"jahre_unbekannt":false,"jahre_widerspruch":true}},{"type":"Feature","geometry":{"type":"Point","coordinates":[7.09682,51.450975]},"properties":{"name":"Bongerbank","stadtteil":"Steele","betrieb_von":"1724","betrieb_bis":"1827","liste_von":"1724","liste_bis":"1782","plan_1935":"","quelle":"https://de.wikipedia.org/wiki/Zeche_Bongerbank","status_1936":"stillgelegt","aktiv_1936":false,"jahre_unbekannt":false,"jahre_widerspruch":true}},{"type":"Feature","geometry":{"type":"Point","coordinates":[7.08444444,51.47361111]},"properties":{"name":"Bonifacius","stadtteil":"Kray","betrieb_von":"1861","betrieb_bis":"1980","liste_von":"1851","liste_bis":"1967","plan_1935":"Zeche Bonifacius","quelle":"https://de.wikipedia.org/wiki/Zeche_Bonifacius","status_1936":"aktiv","aktiv_1936":true,"jahre_unbekannt":false,"jahre_widerspruch":true}},{"type":"Feature","geometry":{"type":"Point","coordinates":[7.058609,51.396167]},"properties":{"name":"Bonscheidt","stadtteil":"Heisingen","betrieb_von":"1798","betrieb_bis":"1868","liste_von":"1779","liste_bis":"1868","plan_1935":"","quelle":"https://de.wikipedia.org/wiki/Zeche_Bonscheidt","status_1936":"stillgelegt","aktiv_1936":false,"jahre_unbekannt":false,"jahre_widerspruch":true}},{"type":"Feature","geometry":{"type":"Point","coordinates":[7.016014,51.414953]},"properties":{"name":"Bosselbank","stadtteil":"Stadtwald","betrieb_von":"1750","betrieb_bis":"1812","liste_von":"1750","liste_bis":"1812","plan_1935":"","quelle":"https://de.wikipedia.org/wiki/Zeche_Bosselbank","status_1936":"stillgelegt","aktiv_1936":false,"jahre_unbekannt":false,"jahre_widerspruch":false}},{"type":"Feature","geometry":{"type":"Point","coordinates":[7.009277,51.37681]},"properties":{"name":"Braut in Fleckessiepen","stadtteil":"Heidhausen","betrieb_von":"1778","betrieb_bis":"1900","liste_von":"1778","liste_bis":"1879","plan_1935":"","quelle":"https://de.wikipedia.org/wiki/Zeche_Braut_in_Fleckessiepen","status_1936":"stillgelegt","aktiv_1936":false,"jahre_unbekannt":false,"jahre_widerspruch":true}},{"type":"Feature","geometry":{"type":"Point","coordinates":[7.01361111,51.38027778]},"properties":{"name":"Vereinigte Braut","stadtteil":"Heidhausen","betrieb_von":"1802","betrieb_bis":"1900","liste_von":"1866","liste_bis":"1898","plan_1935":"","quelle":"https://de.wikipedia.org/wiki/Zeche_Vereinigte_Braut","status_1936":"stillgelegt","aktiv_1936":false,"jahre_unbekannt":false,"jahre_widerspruch":true}},{"type":"Feature","geometry":{"type":"Point","coordinates":[7.013548,51.419838]},"properties":{"name":"Bredeneyer Crone","stadtteil":"Heidhausen","betrieb_von":"1831","betrieb_bis":"1900","liste_von":"1831","liste_bis":"1900","plan_1935":"","quelle":"https://de.wikipedia.org/wiki/Zeche_Bredeneyer_Crone","status_1936":"stillgelegt","aktiv_1936":false,"jahre_unbekannt":false,"jahre_widerspruch":false}},{"type":"Feature","geometry":{"type":"Point","coordinates":[7.04038889,51.40780556]},"properties":{"name":"Bruchkamp & Steinknapp","stadtteil":"Heisingen","betrieb_von":"1789","betrieb_bis":"1841","liste_von":"1789","liste_bis":"1841","plan_1935":"","quelle":"https://de.wikipedia.org/wiki/Zeche_Bruchkamp_&_Steinknapp","status_1936":"stillgelegt","aktiv_1936":false,"jahre_unbekannt":false,"jahre_widerspruch":false}},{"type":"Feature","geometry":{"type":"Point","coordinates":[7.13811,51.417667]},"properties":{"name":"Vereinigte Brüderschaft","stadtteil":"Burgaltendorf","betrieb_von":"1822","betrieb_bis":"1893","liste_von":"1780","liste_bis":"1893","plan_1935":"","quelle":"https://de.wikipedia.org/wiki/Zeche_Vereinigte_Brüderschaft","status_1936":"stillgelegt","aktiv_1936":false,"jahre_unbekannt":false,"jahre_widerspruch":true}},{"type":"Feature","geometry":{"type":"Point","coordinates":[7.023079,51.408757]},"properties":{"name":"Vereinigte Capellenbank","stadtteil":"Baldeney-Stadtwald","betrieb_von":"1779","betrieb_bis":"1875","liste_von":"1779","liste_bis":"1875","plan_1935":"","quelle":"https://de.wikipedia.org/wiki/Zeche_Vereinigte_Capellenbank","status_1936":"stillgelegt","aktiv_1936":false,"jahre_unbekannt":false,"jahre_widerspruch":false}},{"type":"Feature","geometry":{"type":"Point","coordinates":[7.01194444,51.49527778]},"properties":{"name":"Carl","stadtteil":"Altenessen","betrieb_von":"1861","betrieb_bis":"1929","liste_von":"1855","liste_bis":"1973","plan_1935":"Zeche Karl","quelle":"https://de.wikipedia.org/wiki/Zeche_Carl","status_1936":"stillgelegt","aktiv_1936":false,"jahre_unbekannt":false,"jahre_widerspruch":true}},{"type":"Feature","geometry":{"type":"Point","coordinates":[7.04972222,51.40388889]},"properties":{"name":"Carl Funke","stadtteil":"Heisingen","betrieb_von":"1804","betrieb_bis":"1973","liste_von":"1850","liste_bis":"1967","plan_1935":"Zeche Karl Funke","quelle":"https://de.wikipedia.org/wiki/Zeche_Carl_Funke","status_1936":"aktiv","aktiv_1936":true,"jahre_unbekannt":false,"jahre_widerspruch":true}},{"type":"Feature","geometry":{"type":"Point","coordinates":[7.064851,51.378899]},"properties":{"name":"Carl Hugo","stadtteil":"Dilldorf-Hamm","betrieb_von":"1848","betrieb_bis":"1906","liste_von":"1870","liste_bis":"1906","plan_1935":"","quelle":"https://de.wikipedia.org/wiki/Zeche_Carl_Hugo","status_1936":"stillgelegt","aktiv_1936":false,"jahre_unbekannt":false,"jahre_widerspruch":true}},{"type":"Feature","geometry":{"type":"Point","coordinates":[6.96969,51.48333]},"properties":{"name":"Carolus Magnus","stadtteil":"Bergeborbeck","betrieb_von":"1846","betrieb_bis":"1951","liste_von":"","liste_bis":"1954","plan_1935":"Zeche Carolus Magnus","quelle":"https://de.wikipedia.org/wiki/Zeche_Carolus_Magnus","status_1936":"aktiv","aktiv_1936":true,"jahre_unbekannt":false,"jahre_widerspruch":false}},{"type":"Feature","geometry":{"type":"Point","coordinates":[7.10763889,51.41372222]},"properties":{"name":"Catharina","stadtteil":"Burgaltendorf","betrieb_von":"1783","betrieb_bis":"1927","liste_von":"1766","liste_bis":"1927","plan_1935":"","quelle":"https://de.wikipedia.org/wiki/Zeche_Catharina","status_1936":"stillgelegt","aktiv_1936":false,"jahre_unbekannt":false,"jahre_widerspruch":true}},{"type":"Feature","geometry":{"type":"Point","coordinates":[7.108875,51.416827]},"properties":{"name":"Vereinigte Catharina","stadtteil":"Überruhr","betrieb_von":"1811","betrieb_bis":"1917","liste_von":"1811","liste_bis":"1917","plan_1935":"","quelle":"https://de.wikipedia.org/wiki/Zeche_Vereinigte_Catharina","status_1936":"stillgelegt","aktiv_1936":false,"jahre_unbekannt":false,"jahre_widerspruch":false}},{"type":"Feature","geometry":{"type":"Point","coordinates":[7.1075,51.46666667]},"properties":{"name":"Centrum 4/6","stadtteil":"Leithe","betrieb_von":"1900","betrieb_bis":"1972","liste_von":"","liste_bis":"","plan_1935":"Zeche Centrum","quelle":"https://de.wikipedia.org/wiki/Zeche_Centrum_4/6","status_1936":"stillgelegt","aktiv_1936":false,"jahre_unbekannt":false,"jahre_widerspruch":false}},{"type":"Feature","geometry":{"type":"Point","coordinates":[6.94321,51.49599]},"properties":{"name":"Christian Levin","stadtteil":"Dellwig","betrieb_von":"1856","betrieb_bis":"1958","liste_von":"","liste_bis":"1960","plan_1935":"Zeche Christ. Levin","quelle":"https://de.wikipedia.org/wiki/Zeche_Christian_Levin","status_1936":"aktiv","aktiv_1936":true,"jahre_unbekannt":false,"jahre_widerspruch":false}},{"type":"Feature","geometry":{"type":"Point","coordinates":[7.06283056,51.44211111]},"properties":{"name":"Deimelsberger Erbstollen","stadtteil":"Steele","betrieb_von":"1749","betrieb_bis":"1887","liste_von":"1749","liste_bis":"1887","plan_1935":"","quelle":"https://de.wikipedia.org/wiki/Zeche_Vereinigte_Deimelsberger_Erbstolln","status_1936":"stillgelegt","aktiv_1936":false,"jahre_unbekannt":false,"jahre_widerspruch":false}},{"type":"Feature","geometry":{"type":"Point","coordinates":[6.958762,51.371127]},"properties":{"name":"Die Kanzel","stadtteil":"Kettwig","betrieb_von":"1859","betrieb_bis":"1865","liste_von":"1921","liste_bis":"1930","plan_1935":"","quelle":"https://de.wikipedia.org/wiki/Zeche_Kanzel#Die_Kanzel","status_1936":"stillgelegt","aktiv_1936":false,"jahre_unbekannt":false,"jahre_widerspruch":true}},{"type":"Feature","geometry":{"type":"Point","coordinates":[6.96852778,51.38225]},"properties":{"name":"Dohm’s Erbstollen","stadtteil":"Schuir","betrieb_von":"1861","betrieb_bis":"1961","liste_von":"1839","liste_bis":"1961","plan_1935":"","quelle":"https://de.wikipedia.org/wiki/Zeche_Dohm’s_Erbstollen","status_1936":"stillgelegt","aktiv_1936":false,"jahre_unbekannt":false,"jahre_widerspruch":true}},{"type":"Feature","geometry":{"type":"Point","coordinates":[7.04261111,51.40686111]},"properties":{"name":"Duvenkampsbank","stadtteil":"Heisingen","betrieb_von":"1780","betrieb_bis":"1866","liste_von":"1780","liste_bis":"1866","plan_1935":"","quelle":"https://de.wikipedia.org/wiki/Zeche_Duvenkampsbank","status_1936":"stillgelegt","aktiv_1936":false,"jahre_unbekannt":false,"jahre_widerspruch":false}},{"type":"Feature","geometry":{"type":"Point","coordinates":[7.11611111,51.4425]},"properties":{"name":"Eiberg","stadtteil":"Horst-Eiberg","betrieb_von":"1882","betrieb_bis":"1914","liste_von":"1850","liste_bis":"1914","plan_1935":"","quelle":"https://de.wikipedia.org/wiki/Zeche_Eiberg","status_1936":"stillgelegt","aktiv_1936":false,"jahre_unbekannt":false,"jahre_widerspruch":true}},{"type":"Feature","geometry":{"type":"Point","coordinates":[7.1076,51.45032]},"properties":{"name":"Eintracht Tiefbau","stadtteil":"Freisenbruch","betrieb_von":"1765","betrieb_bis":"1925","liste_von":"1856","liste_bis":"1925","plan_1935":"Zeche Eintracht","quelle":"https://de.wikipedia.org/wiki/Zeche_Eintracht_Tiefbau","status_1936":"stillgelegt","aktiv_1936":false,"jahre_unbekannt":false,"jahre_widerspruch":true}},{"type":"Feature","geometry":{"type":"Point","coordinates":[6.9925,51.49527778]},"properties":{"name":"Emil-Emscher","stadtteil":"Altenessen","betrieb_von":"1877","betrieb_bis":"1965","liste_von":"1966","liste_bis":"1975","plan_1935":"Zeche Emscher","quelle":"https://de.wikipedia.org/wiki/Zeche_Emil-Emscher","status_1936":"aktiv","aktiv_1936":true,"jahre_unbekannt":false,"jahre_widerspruch":true}},{"type":"Feature","geometry":{"type":"Point","coordinates":[7.005518,51.495774]},"properties":{"name":"Emil-Fritz","stadtteil":"Altenessen","betrieb_von":"1965","betrieb_bis":"1970","liste_von":"","liste_bis":"","plan_1935":"","quelle":"https://de.wikipedia.org/wiki/Bergwerk_Emil-Fritz","status_1936":"stillgelegt","aktiv_1936":false,"jahre_unbekannt":false,"jahre_widerspruch":false}},{"type":"Feature","geometry":{"type":"Point","coordinates":[6.941128,51.351725]},"properties":{"name":"Emilie","stadtteil":"Kettwig","betrieb_von":"1833","betrieb_bis":"1923","liste_von":"1833","liste_bis":"1923","plan_1935":"","quelle":"https://de.wikipedia.org/wiki/Zeche_Emilie","status_1936":"stillgelegt","aktiv_1936":false,"jahre_unbekannt":false,"jahre_widerspruch":false}},{"type":"Feature","geometry":{"type":"Point","coordinates":[6.92786,51.368256]},"properties":{"name":"Erbenbank","stadtteil":"Kettwig","betrieb_von":"1757","betrieb_bis":"1893","liste_von":"1757","liste_bis":"1893","plan_1935":"","quelle":"https://de.wikipedia.org/wiki/Zeche_Erbenbank","status_1936":"stillgelegt","aktiv_1936":false,"jahre_unbekannt":false,"jahre_widerspruch":false}},{"type":"Feature","geometry":{"type":"Point","coordinates":[7.007604,51.40795]},"properties":{"name":"Erbenkampsbank","stadtteil":"Bredeney","betrieb_von":"1805","betrieb_bis":"1875","liste_von":"1805","liste_bis":"1875","plan_1935":"","quelle":"https://de.wikipedia.org/wiki/Zeche_Erbenkampsbank","status_1936":"stillgelegt","aktiv_1936":false,"jahre_unbekannt":false,"jahre_widerspruch":false}},{"type":"Feature","geometry":{"type":"Point","coordinates":[7.00785556,51.44755556]},"properties":{"name":"Fettlappen","stadtteil":"Südviertel","betrieb_von":"1760","betrieb_bis":"1805","liste_von":"1760","liste_bis":"1805","plan_1935":"","quelle":"https://de.wikipedia.org/wiki/Zeche_Fettlappen","status_1936":"stillgelegt","aktiv_1936":false,"jahre_unbekannt":false,"jahre_widerspruch":false}},{"type":"Feature","geometry":{"type":"Point","coordinates":[6.99377778,51.39447222]},"properties":{"name":"Flöte","stadtteil":"Werden","betrieb_von":"1777","betrieb_bis":"1927","liste_von":"1923","liste_bis":"1930","plan_1935":"","quelle":"https://de.wikipedia.org/wiki/Zeche_Flöte","status_1936":"stillgelegt","aktiv_1936":false,"jahre_unbekannt":false,"jahre_widerspruch":true}},{"type":"Feature","geometry":{"type":"Point","coordinates":[7.07544167,51.39903056]},"properties":{"name":"Flörchen","stadtteil":"Heisingen","betrieb_von":"1802","betrieb_bis":"1804","liste_von":"1793","liste_bis":"1854","plan_1935":"","quelle":"https://de.wikipedia.org/wiki/Zeche_Flörchen","status_1936":"stillgelegt","aktiv_1936":false,"jahre_unbekannt":false,"jahre_widerspruch":true}},{"type":"Feature","geometry":{"type":"Point","coordinates":[7.07544167,51.39903056]},"properties":{"name":"Flor","stadtteil":"Heisingen","betrieb_von":"1805","betrieb_bis":"1854","liste_von":"1793","liste_bis":"1854","plan_1935":"","quelle":"https://de.wikipedia.org/wiki/Zeche_Flor","status_1936":"stillgelegt","aktiv_1936":false,"jahre_unbekannt":false,"jahre_widerspruch":true}},{"type":"Feature","geometry":{"type":"Point","coordinates":[7.07544167,51.39903056]},"properties":{"name":"Flor & Flörchen","stadtteil":"Heisingen","betrieb_von":"1855","betrieb_bis":"1872","liste_von":"1854","liste_bis":"1872","plan_1935":"","quelle":"https://de.wikipedia.org/wiki/Zeche_Flor_&_Flörchen","status_1936":"stillgelegt","aktiv_1936":false,"jahre_unbekannt":false,"jahre_widerspruch":true}},{"type":"Feature","geometry":{"type":"Point","coordinates":[7.075125,51.397082]},"properties":{"name":"Vereinigte Flor & Flörchen","stadtteil":"Heisingen","betrieb_von":"1872","betrieb_bis":"1880","liste_von":"1872","liste_bis":"1880","plan_1935":"","quelle":"https://de.wikipedia.org/wiki/Zeche_Vereinigte_Flor_&_Flörchen","status_1936":"stillgelegt","aktiv_1936":false,"jahre_unbekannt":false,"jahre_widerspruch":false}},{"type":"Feature","geometry":{"type":"Point","coordinates":[6.98851667,51.41422222]},"properties":{"name":"Fortuna","stadtteil":"Bredeney","betrieb_von":"1758","betrieb_bis":"1880","liste_von":"1758","liste_bis":"1880","plan_1935":"","quelle":"https://de.wikipedia.org/wiki/Zeche_Fortuna_(Essen)","status_1936":"stillgelegt","aktiv_1936":false,"jahre_unbekannt":false,"jahre_widerspruch":false}},{"type":"Feature","geometry":{"type":"Point","coordinates":[6.994793,51.390476]},"properties":{"name":"Freudenberg","stadtteil":"Bredeney","betrieb_von":"1734","betrieb_bis":"1880","liste_von":"1705","liste_bis":"1880","plan_1935":"","quelle":"https://de.wikipedia.org/wiki/Zeche_Freudenberg_(Essen)","status_1936":"stillgelegt","aktiv_1936":false,"jahre_unbekannt":false,"jahre_widerspruch":true}},{"type":"Feature","geometry":{"type":"Point","coordinates":[7.11053,51.438909]},"properties":{"name":"Fridolin","stadtteil":"Steele","betrieb_von":"1836","betrieb_bis":"1960","liste_von":"1836","liste_bis":"1960","plan_1935":"","quelle":"https://de.wikipedia.org/wiki/Zeche_Fridolin","status_1936":"stillgelegt","aktiv_1936":false,"jahre_unbekannt":false,"jahre_widerspruch":false}},{"type":"Feature","geometry":{"type":"Point","coordinates":[7.04777778,51.47277778]},"properties":{"name":"Friedrich Ernestine","stadtteil":"Stoppenberg","betrieb_von":"1873","betrieb_bis":"1955","liste_von":"","liste_bis":"","plan_1935":"Zeche Friedrich Ernes[tine] (rechts abgeschnitten)","quelle":"https://de.wikipedia.org/wiki/Zeche_Friedrich_Ernestine","status_1936":"aktiv","aktiv_1936":true,"jahre_unbekannt":false,"jahre_widerspruch":false}},{"type":"Feature","geometry":{"type":"Point","coordinates":[7.04983056,51.40408611]},"properties":{"name":"Friedrich Wilhelm","stadtteil":"Heisingen","betrieb_von":"1860","betrieb_bis":"1903","liste_von":"1896","liste_bis":"1903","plan_1935":"","quelle":"https://de.wikipedia.org/wiki/Zeche_Friedrich_Wilhelm_(Essen)","status_1936":"stillgelegt","aktiv_1936":false,"jahre_unbekannt":false,"jahre_widerspruch":true}},{"type":"Feature","geometry":{"type":"Point","coordinates":[7.01119,51.50961]},"properties":{"name":"Fritz-Heinrich","stadtteil":"Altenessen","betrieb_von":"1859","betrieb_bis":"1973","liste_von":"1855","liste_bis":"1967","plan_1935":"","quelle":"https://de.wikipedia.org/wiki/Zeche_Fritz-Heinrich","status_1936":"unsicher","aktiv_1936":false,"jahre_unbekannt":false,"jahre_widerspruch":true}},{"type":"Feature","geometry":{"type":"Point","coordinates":[7.07308333,51.37468333]},"properties":{"name":"Gabe Gottes (Essen)","stadtteil":"Kupferdreh","betrieb_von":"1758","betrieb_bis":"1861","liste_von":"1758","liste_bis":"1861","plan_1935":"","quelle":"https://de.wikipedia.org/wiki/Zeche_Gabe_Gottes_(Essen)","status_1936":"stillgelegt","aktiv_1936":false,"jahre_unbekannt":false,"jahre_widerspruch":false}},{"type":"Feature","geometry":{"type":"Point","coordinates":[7.026496,51.429356]},"properties":{"name":"Geitling am Wittenberge","stadtteil":"Rüttenscheid","betrieb_von":"1800","betrieb_bis":"1888","liste_von":"1800","liste_bis":"1888","plan_1935":"","quelle":"https://de.wikipedia.org/wiki/Zeche_Geitling_am_Wittenberge","status_1936":"stillgelegt","aktiv_1936":false,"jahre_unbekannt":false,"jahre_widerspruch":false}},{"type":"Feature","geometry":{"type":"Point","coordinates":[7.122402,51.41409]},"properties":{"name":"Geitling","stadtteil":"Burgaltendorf","betrieb_von":"1791","betrieb_bis":"1869","liste_von":"1791","liste_bis":"1869","plan_1935":"","quelle":"https://de.wikipedia.org/wiki/Zeche_Geitling_(Burgaltendorf)","status_1936":"stillgelegt","aktiv_1936":false,"jahre_unbekannt":false,"jahre_widerspruch":false}},{"type":"Feature","geometry":{"type":"Point","coordinates":[7.1075,51.42972222]},"properties":{"name":"Geitling","stadtteil":"Horst","betrieb_von":"1788","betrieb_bis":"1940","liste_von":"1788","liste_bis":"1844","plan_1935":"","quelle":"https://de.wikipedia.org/wiki/Zeche_Geitling_(Steele-Horst)","status_1936":"stillgelegt","aktiv_1936":false,"jahre_unbekannt":false,"jahre_widerspruch":true}},{"type":"Feature","geometry":{"type":"Point","coordinates":[6.971808,51.436864]},"properties":{"name":"Geitlinger Stolln","stadtteil":"Frohnhausen","betrieb_von":"1924","betrieb_bis":"1930","liste_von":"1924","liste_bis":"1930","plan_1935":"","quelle":"https://de.wikipedia.org/wiki/Zeche_Geitlinger_Stolln","status_1936":"stillgelegt","aktiv_1936":false,"jahre_unbekannt":false,"jahre_widerspruch":false}},{"type":"Feature","geometry":{"type":"Point","coordinates":[7.102454,51.422367]},"properties":{"name":"Getreue Freundschaft","stadtteil":"Burgaltendorf","betrieb_von":"1781","betrieb_bis":"1874","liste_von":"1781","liste_bis":"1874","plan_1935":"","quelle":"https://de.wikipedia.org/wiki/Zeche_Getreue_Freundschaft","status_1936":"stillgelegt","aktiv_1936":false,"jahre_unbekannt":false,"jahre_widerspruch":false}},{"type":"Feature","geometry":{"type":"Point","coordinates":[7.078491,51.434449]},"properties":{"name":"Gewalt","stadtteil":"Überruhr","betrieb_von":"1770","betrieb_bis":"1813","liste_von":"1770","liste_bis":"1813","plan_1935":"","quelle":"https://de.wikipedia.org/wiki/Zeche_Gewalt","status_1936":"stillgelegt","aktiv_1936":false,"jahre_unbekannt":false,"jahre_widerspruch":false}},{"type":"Feature","geometry":{"type":"Point","coordinates":[7.078277,51.434477]},"properties":{"name":"Vereinigte Gewalt","stadtteil":"Überruhr","betrieb_von":"1813","betrieb_bis":"1886","liste_von":"1813","liste_bis":"1886","plan_1935":"","quelle":"https://de.wikipedia.org/wiki/Zeche_Vereinigte_Gewalt","status_1936":"stillgelegt","aktiv_1936":false,"jahre_unbekannt":false,"jahre_widerspruch":false}},{"type":"Feature","geometry":{"type":"Point","coordinates":[7.07681,51.436098]},"properties":{"name":"Vereinigte Gewalt und Gottvertraut","stadtteil":"Überruhr","betrieb_von":"1924","betrieb_bis":"1957","liste_von":"1924","liste_bis":"1957","plan_1935":"","quelle":"https://de.wikipedia.org/wiki/Zeche_Vereinigte_Gewalt_und_Gottvertraut","status_1936":"stillgelegt","aktiv_1936":false,"jahre_unbekannt":false,"jahre_widerspruch":false}},{"type":"Feature","geometry":{"type":"Point","coordinates":[7.087836,51.393414]},"properties":{"name":"Gilles Antoine","stadtteil":"Byfang-Kupferdreh","betrieb_von":"1853","betrieb_bis":"1887","liste_von":"1853","liste_bis":"1888","plan_1935":"","quelle":"https://de.wikipedia.org/wiki/Zeche_Gilles_Antoine","status_1936":"stillgelegt","aktiv_1936":false,"jahre_unbekannt":false,"jahre_widerspruch":true}},{"type":"Feature","geometry":{"type":"Point","coordinates":[7.03907222,51.40775]},"properties":{"name":"Girondelle","stadtteil":"Stadtwald","betrieb_von":"1802","betrieb_bis":"1865","liste_von":"1802","liste_bis":"1865","plan_1935":"","quelle":"https://de.wikipedia.org/wiki/Zeche_Vereinigte_Girendelle","status_1936":"stillgelegt","aktiv_1936":false,"jahre_unbekannt":false,"jahre_widerspruch":false}},{"type":"Feature","geometry":{"type":"Point","coordinates":[7.038957,51.407563]},"properties":{"name":"Girondeller Siepen","stadtteil":"Stadtwald","betrieb_von":"1780","betrieb_bis":"1860","liste_von":"1780","liste_bis":"1860","plan_1935":"","quelle":"https://de.wikipedia.org/wiki/Zeche_Gierendeller_Siepen","status_1936":"stillgelegt","aktiv_1936":false,"jahre_unbekannt":false,"jahre_widerspruch":false}},{"type":"Feature","geometry":{"type":"Point","coordinates":[6.98218889,51.43965]},"properties":{"name":"Gitzkiel","stadtteil":"Fulerum","betrieb_von":"1765","betrieb_bis":"1856","liste_von":"1693","liste_bis":"1856","plan_1935":"","quelle":"https://de.wikipedia.org/wiki/Zeche_Gitzkiel","status_1936":"stillgelegt","aktiv_1936":false,"jahre_unbekannt":false,"jahre_widerspruch":true}},{"type":"Feature","geometry":{"type":"Point","coordinates":[7.03944444,51.41638889]},"properties":{"name":"Gottfried Wilhelm","stadtteil":"Rellinghausen","betrieb_von":"1909","betrieb_bis":"1942","liste_von":"1859","liste_bis":"1913","plan_1935":"Zeche Gottfried Wilhelm","quelle":"https://de.wikipedia.org/wiki/Zeche_Gottfried_Wilhelm","status_1936":"aktiv","aktiv_1936":true,"jahre_unbekannt":false,"jahre_widerspruch":true}},{"type":"Feature","geometry":{"type":"Point","coordinates":[7.087812,51.392394]},"properties":{"name":"Gottessegen","stadtteil":"Kupferdreh","betrieb_von":"1800","betrieb_bis":"1872","liste_von":"1800","liste_bis":"1872","plan_1935":"","quelle":"https://de.wikipedia.org/wiki/Zeche_Gottessegen_(Essen)","status_1936":"stillgelegt","aktiv_1936":false,"jahre_unbekannt":false,"jahre_widerspruch":false}},{"type":"Feature","geometry":{"type":"Point","coordinates":[7.073515,51.42764]},"properties":{"name":"Gottvertraut","stadtteil":"Überruhr","betrieb_von":"1800","betrieb_bis":"1886","liste_von":"1800","liste_bis":"1886","plan_1935":"","quelle":"https://de.wikipedia.org/wiki/Zeche_Gottvertraut","status_1936":"stillgelegt","aktiv_1936":false,"jahre_unbekannt":false,"jahre_widerspruch":false}},{"type":"Feature","geometry":{"type":"Point","coordinates":[7.02298,51.45992]},"properties":{"name":"Graf Beust","stadtteil":"Altenessen","betrieb_von":"1842","betrieb_bis":"1929","liste_von":"1840","liste_bis":"1974","plan_1935":"Zeche Graf Beust","quelle":"https://de.wikipedia.org/wiki/Zeche_Graf_Beust","status_1936":"stillgelegt","aktiv_1936":false,"jahre_unbekannt":false,"jahre_widerspruch":true}},{"type":"Feature","geometry":{"type":"Point","coordinates":[7.066111,51.383015]},"properties":{"name":"Große Bovermannswiese","stadtteil":"Werden","betrieb_von":"1832","betrieb_bis":"1870","liste_von":"1832","liste_bis":"1870","plan_1935":"","quelle":"https://de.wikipedia.org/wiki/Zeche_Große_Bovermannswiese","status_1936":"stillgelegt","aktiv_1936":false,"jahre_unbekannt":false,"jahre_widerspruch":false}},{"type":"Feature","geometry":{"type":"Point","coordinates":[7.132641,51.42274]},"properties":{"name":"Große Vaerstbank","stadtteil":"Burgaltendorf","betrieb_von":"1722","betrieb_bis":"1881","liste_von":"1772","liste_bis":"1881","plan_1935":"","quelle":"https://de.wikipedia.org/wiki/Zeche_Große_Varstbank","status_1936":"stillgelegt","aktiv_1936":false,"jahre_unbekannt":false,"jahre_widerspruch":true}},{"type":"Feature","geometry":{"type":"Point","coordinates":[6.94286111,51.43294444]},"properties":{"name":"Hammelsbeck","stadtteil":"Fulerum","betrieb_von":"1732","betrieb_bis":"1865","liste_von":"1732","liste_bis":"1865","plan_1935":"","quelle":"https://de.wikipedia.org/wiki/Zeche_Hammelsbeck","status_1936":"stillgelegt","aktiv_1936":false,"jahre_unbekannt":false,"jahre_widerspruch":false}},{"type":"Feature","geometry":{"type":"Point","coordinates":[6.972109,51.456739]},"properties":{"name":"Hagenbeck","stadtteil":"Altendorf","betrieb_von":"1757","betrieb_bis":"1928","liste_von":"1550","liste_bis":"1928","plan_1935":"Zeche Hagenbeck","quelle":"https://de.wikipedia.org/wiki/Zeche_Hagenbeck","status_1936":"stillgelegt","aktiv_1936":false,"jahre_unbekannt":false,"jahre_widerspruch":true}},{"type":"Feature","geometry":{"type":"Point","coordinates":[6.96988,51.45691]},"properties":{"name":"Vereinigte Hagenbeck","stadtteil":"Altendorf","betrieb_von":"1842","betrieb_bis":"1928","liste_von":"1550","liste_bis":"1928","plan_1935":"Zeche Hagenbeck (kursive Beschriftung an der Bahnanlage)","quelle":"https://de.wikipedia.org/wiki/Zeche_Vereinigte_Hagenbeck","status_1936":"stillgelegt","aktiv_1936":false,"jahre_unbekannt":false,"jahre_widerspruch":true}},{"type":"Feature","geometry":{"type":"Point","coordinates":[7.089824,51.382468]},"properties":{"name":"Hardenbergische Kohlenbergwerke","stadtteil":"Kupferdreh-Dilldorf","betrieb_von":"1838","betrieb_bis":"1861","liste_von":"1838","liste_bis":"1866","plan_1935":"","quelle":"https://de.wikipedia.org/wiki/Hardenbergische_Kohlenbergwerke","status_1936":"stillgelegt","aktiv_1936":false,"jahre_unbekannt":false,"jahre_widerspruch":true}},{"type":"Feature","geometry":{"type":"Point","coordinates":[7.098638,51.409115]},"properties":{"name":"Heimannsfeld","stadtteil":"Byfang","betrieb_von":"1804","betrieb_bis":"1857","liste_von":"1804","liste_bis":"1857","plan_1935":"","quelle":"https://de.wikipedia.org/wiki/Zeche_Heimannsfeld","status_1936":"stillgelegt","aktiv_1936":false,"jahre_unbekannt":false,"jahre_widerspruch":false}},{"type":"Feature","geometry":{"type":"Point","coordinates":[7.07472222,51.41833333]},"properties":{"name":"Heinrich","stadtteil":"Überruhr","betrieb_von":"1852","betrieb_bis":"1968","liste_von":"1809","liste_bis":"1968","plan_1935":"Zeche Heinrich","quelle":"https://de.wikipedia.org/wiki/Zeche_Heinrich_(Essen-Überruhr)","status_1936":"unsicher","aktiv_1936":false,"jahre_unbekannt":false,"jahre_widerspruch":true}},{"type":"Feature","geometry":{"type":"Point","coordinates":[7.074057,51.416946]},"properties":{"name":"Heinrich","stadtteil":"Werden","betrieb_von":"1880","betrieb_bis":"1887","liste_von":"1880","liste_bis":"1887","plan_1935":"Zeche Heinrich","quelle":"https://de.wikipedia.org/wiki/Zeche_Heinrich_(Essen-Werden)","status_1936":"stillgelegt","aktiv_1936":false,"jahre_unbekannt":false,"jahre_widerspruch":false}},{"type":"Feature","geometry":{"type":"Point","coordinates":[7.07086,51.39872]},"properties":{"name":"Heisinger Mulde","stadtteil":"Heisingen","betrieb_von":"1880","betrieb_bis":"1899","liste_von":"1880","liste_bis":"1899","plan_1935":"","quelle":"https://de.wikipedia.org/wiki/Zeche_Heisinger_Mulde","status_1936":"stillgelegt","aktiv_1936":false,"jahre_unbekannt":false,"jahre_widerspruch":false}},{"type":"Feature","geometry":{"type":"Point","coordinates":[7.01916667,51.48222222]},"properties":{"name":"Helene","stadtteil":"Altenessen","betrieb_von":"1873","betrieb_bis":"1965","liste_von":"1927","liste_bis":"1963","plan_1935":"Zeche Helene","quelle":"https://de.wikipedia.org/wiki/Zeche_Helene_(Essen)#Die_letzten_Jahre","status_1936":"aktiv","aktiv_1936":true,"jahre_unbekannt":false,"jahre_widerspruch":true}},{"type":"Feature","geometry":{"type":"Point","coordinates":[7.01916667,51.48222222]},"properties":{"name":"Vereinigte Helene & Amalie","stadtteil":"Altenessen","betrieb_von":"1873","betrieb_bis":"1965","liste_von":"1839","liste_bis":"1927","plan_1935":"Zeche Helene","quelle":"https://de.wikipedia.org/wiki/Zeche_Vereinigte_Helene_&_Amalie","status_1936":"stillgelegt","aktiv_1936":false,"jahre_unbekannt":false,"jahre_widerspruch":true}},{"type":"Feature","geometry":{"type":"Point","coordinates":[7.088334,51.404642]},"properties":{"name":"Vereinigte Henriette","stadtteil":"Byfang","betrieb_von":"","betrieb_bis":"1878","liste_von":"","liste_bis":"1878","plan_1935":"","quelle":"https://de.wikipedia.org/wiki/Zeche_Vereinigte_Henriette_(Essen)","status_1936":"stillgelegt","aktiv_1936":false,"jahre_unbekannt":true,"jahre_widerspruch":false}},{"type":"Feature","geometry":{"type":"Point","coordinates":[7.060927,51.388561]},"properties":{"name":"Henriette Catharina","stadtteil":"Werden-Hamm","betrieb_von":"1800","betrieb_bis":"1855","liste_von":"1800","liste_bis":"1858","plan_1935":"","quelle":"https://de.wikipedia.org/wiki/Zeche_Henriette_Catharina","status_1936":"stillgelegt","aktiv_1936":false,"jahre_unbekannt":false,"jahre_widerspruch":true}},{"type":"Feature","geometry":{"type":"Point","coordinates":[7.019963,51.431943]},"properties":{"name":"Henriettenglück","stadtteil":"Bergerhausen","betrieb_von":"1799","betrieb_bis":"1806","liste_von":"1799","liste_bis":"1806","plan_1935":"","quelle":"https://de.wikipedia.org/wiki/Zeche_Henriettenglück","status_1936":"stillgelegt","aktiv_1936":false,"jahre_unbekannt":false,"jahre_widerspruch":false}},{"type":"Feature","geometry":{"type":"Point","coordinates":[7.02333333,51.45666667]},"properties":{"name":"Hercules","stadtteil":"Ostviertel","betrieb_von":"1859","betrieb_bis":"1925","liste_von":"1850","liste_bis":"1965","plan_1935":"Zeche Herkules","quelle":"https://de.wikipedia.org/wiki/Zeche_Hercules","status_1936":"stillgelegt","aktiv_1936":false,"jahre_unbekannt":false,"jahre_widerspruch":true}},{"type":"Feature","geometry":{"type":"Point","coordinates":[6.985972,51.454656]},"properties":{"name":"Herrenbank","stadtteil":"Altendorf","betrieb_von":"1749","betrieb_bis":"1811","liste_von":"1749","liste_bis":"1811","plan_1935":"","quelle":"https://de.wikipedia.org/wiki/Zeche_Herrenbank_(Altendorf)","status_1936":"stillgelegt","aktiv_1936":false,"jahre_unbekannt":false,"jahre_widerspruch":false}},{"type":"Feature","geometry":{"type":"Point","coordinates":[7.045707,51.421855]},"properties":{"name":"Herrenbank","stadtteil":"Rellinghausen","betrieb_von":"1800","betrieb_bis":"1855","liste_von":"1802","liste_bis":"1855","plan_1935":"","quelle":"https://de.wikipedia.org/wiki/Zeche_Herrenbank_(Rellinghausen)","status_1936":"stillgelegt","aktiv_1936":false,"jahre_unbekannt":false,"jahre_widerspruch":true}},{"type":"Feature","geometry":{"type":"Point","coordinates":[7.0395,51.3752]},"properties":{"name":"Hermann","stadtteil":"Heidhausen","betrieb_von":"1948","betrieb_bis":"1964","liste_von":"1948","liste_bis":"1964","plan_1935":"","quelle":"https://de.wikipedia.org/wiki/Zeche_Hermann_(Essen)","status_1936":"stillgelegt","aktiv_1936":false,"jahre_unbekannt":false,"jahre_widerspruch":false}},{"type":"Feature","geometry":{"type":"Point","coordinates":[6.9775,51.41479]},"properties":{"name":"Hero","stadtteil":"Haarzopf","betrieb_von":"1896","betrieb_bis":"1900","liste_von":"1896","liste_bis":"1900","plan_1935":"","quelle":"https://de.wikipedia.org/wiki/Zeche_Hero","status_1936":"stillgelegt","aktiv_1936":false,"jahre_unbekannt":false,"jahre_widerspruch":false}},{"type":"Feature","geometry":{"type":"Point","coordinates":[7.0828,51.407363]},"properties":{"name":"Himmelsfürster Erbstollen","stadtteil":"Burgaltendorf","betrieb_von":"1804","betrieb_bis":"1831","liste_von":"1787","liste_bis":"1831","plan_1935":"","quelle":"https://de.wikipedia.org/wiki/Himmelsfürster_Erbstolln","status_1936":"stillgelegt","aktiv_1936":false,"jahre_unbekannt":false,"jahre_widerspruch":true}},{"type":"Feature","geometry":{"type":"Point","coordinates":[7.083019,51.407353]},"properties":{"name":"Vereinigte Himmelsfürster Erbstollen","stadtteil":"Überruhr","betrieb_von":"1831","betrieb_bis":"1908","liste_von":"1831","liste_bis":"1908","plan_1935":"","quelle":"https://de.wikipedia.org/wiki/Zeche_Vereinigte_Himmelsfürster_Erbstollen","status_1936":"stillgelegt","aktiv_1936":false,"jahre_unbekannt":false,"jahre_widerspruch":false}},{"type":"Feature","geometry":{"type":"Point","coordinates":[7.007893,51.403895]},"properties":{"name":"Hitzberg","stadtteil":"Baldeney","betrieb_von":"1793","betrieb_bis":"1879","liste_von":"1793","liste_bis":"1879","plan_1935":"","quelle":"https://de.wikipedia.org/wiki/Zeche_Hitzberg","status_1936":"stillgelegt","aktiv_1936":false,"jahre_unbekannt":false,"jahre_widerspruch":false}},{"type":"Feature","geometry":{"type":"Point","coordinates":[6.986659,51.442364]},"properties":{"name":"Hobeisen","stadtteil":"Holsterhausen","betrieb_von":"1718","betrieb_bis":"1841","liste_von":"1718","liste_bis":"1841","plan_1935":"","quelle":"https://de.wikipedia.org/wiki/Zeche_Hobeisen","status_1936":"stillgelegt","aktiv_1936":false,"jahre_unbekannt":false,"jahre_widerspruch":false}},{"type":"Feature","geometry":{"type":"Point","coordinates":[7.07914,51.413824]},"properties":{"name":"Hoffnung","stadtteil":"Überruhr","betrieb_von":"1798","betrieb_bis":"1809","liste_von":"1798","liste_bis":"1809","plan_1935":"","quelle":"https://de.wikipedia.org/wiki/Zeche_Hoffnung_(Essen-Überruhr)","status_1936":"stillgelegt","aktiv_1936":false,"jahre_unbekannt":false,"jahre_widerspruch":false}},{"type":"Feature","geometry":{"type":"Point","coordinates":[6.99624,51.374318]},"properties":{"name":"Hoffnung","stadtteil":"Heidhausen","betrieb_von":"1820","betrieb_bis":"1832","liste_von":"1820","liste_bis":"1832","plan_1935":"","quelle":"https://de.wikipedia.org/wiki/Zeche_Hoffnung_(Essen-Heidhausen)","status_1936":"stillgelegt","aktiv_1936":false,"jahre_unbekannt":false,"jahre_widerspruch":false}},{"type":"Feature","geometry":{"type":"Point","coordinates":[7.108496,51.429317]},"properties":{"name":"Horster Erbstollen","stadtteil":"Horst","betrieb_von":"1835","betrieb_bis":"1879","liste_von":"1835","liste_bis":"1879","plan_1935":"","quelle":"https://de.wikipedia.org/wiki/Horster_Erbstollen","status_1936":"stillgelegt","aktiv_1936":false,"jahre_unbekannt":false,"jahre_widerspruch":false}},{"type":"Feature","geometry":{"type":"Point","coordinates":[7.07364167,51.37476111]},"properties":{"name":"Huferbänke","stadtteil":"Kupferdreh","betrieb_von":"1802","betrieb_bis":"1887","liste_von":"1802","liste_bis":"1887","plan_1935":"","quelle":"https://de.wikipedia.org/wiki/Zeche_Huferbänke","status_1936":"stillgelegt","aktiv_1936":false,"jahre_unbekannt":false,"jahre_widerspruch":false}},{"type":"Feature","geometry":{"type":"Point","coordinates":[7.092295,51.444393]},"properties":{"name":"Hünninghauserbank","stadtteil":"Königssteele","betrieb_von":"1728","betrieb_bis":"1823","liste_von":"1728","liste_bis":"1823","plan_1935":"","quelle":"https://de.wikipedia.org/wiki/Zeche_Hünninghauserbank","status_1936":"stillgelegt","aktiv_1936":false,"jahre_unbekannt":false,"jahre_widerspruch":false}},{"type":"Feature","geometry":{"type":"Point","coordinates":[7.086834,51.444579]},"properties":{"name":"Hünninghauser Erbstolln","stadtteil":"Königssteele","betrieb_von":"1725","betrieb_bis":"1815","liste_von":"1725","liste_bis":"1815","plan_1935":"","quelle":"https://de.wikipedia.org/wiki/Hünninghauser_Erbstolln","status_1936":"stillgelegt","aktiv_1936":false,"jahre_unbekannt":false,"jahre_widerspruch":false}},{"type":"Feature","geometry":{"type":"Point","coordinates":[7.016295,51.375085]},"properties":{"name":"Ilandsbraut","stadtteil":"Werden","betrieb_von":"1832","betrieb_bis":"1877","liste_von":"1832","liste_bis":"1877","plan_1935":"","quelle":"https://de.wikipedia.org/wiki/Zeche_Ilandsbraut","status_1936":"stillgelegt","aktiv_1936":false,"jahre_unbekannt":false,"jahre_widerspruch":false}},{"type":"Feature","geometry":{"type":"Point","coordinates":[7.028772,51.408292]},"properties":{"name":"Isenberg","stadtteil":"Baldeney","betrieb_von":"1802","betrieb_bis":"1818","liste_von":"1802","liste_bis":"1818","plan_1935":"","quelle":"https://de.wikipedia.org/wiki/Zeche_Isenberg_(Essen)","status_1936":"stillgelegt","aktiv_1936":false,"jahre_unbekannt":false,"jahre_widerspruch":false}},{"type":"Feature","geometry":{"type":"Point","coordinates":[6.973985,51.358194]},"properties":{"name":"Jacke","stadtteil":"Kettwig","betrieb_von":"1803","betrieb_bis":"1854","liste_von":"1803","liste_bis":"1900","plan_1935":"","quelle":"https://de.wikipedia.org/wiki/Zeche_Jacke","status_1936":"stillgelegt","aktiv_1936":false,"jahre_unbekannt":false,"jahre_widerspruch":true}},{"type":"Feature","geometry":{"type":"Point","coordinates":[7.07163,51.45125]},"properties":{"name":"Johann","stadtteil":"Steele","betrieb_von":"1830","betrieb_bis":"1859","liste_von":"1830","liste_bis":"1859","plan_1935":"","quelle":"https://de.wikipedia.org/wiki/Zeche_Johann_(Essen)","status_1936":"stillgelegt","aktiv_1936":false,"jahre_unbekannt":false,"jahre_widerspruch":false}},{"type":"Feature","geometry":{"type":"Point","coordinates":[7.06199,51.44189]},"properties":{"name":"Johann Deimelsberg","stadtteil":"Steele","betrieb_von":"1887","betrieb_bis":"1928","liste_von":"1887","liste_bis":"1928","plan_1935":"","quelle":"https://de.wikipedia.org/wiki/Zeche_Johann_Deimelsberg","status_1936":"stillgelegt","aktiv_1936":false,"jahre_unbekannt":false,"jahre_widerspruch":false}},{"type":"Feature","geometry":{"type":"Point","coordinates":[7.103597,51.447415]},"properties":{"name":"Johannisberg","stadtteil":"Steele","betrieb_von":"1952","betrieb_bis":"1967","liste_von":"1952","liste_bis":"1967","plan_1935":"","quelle":"https://de.wikipedia.org/wiki/Zeche_Johannisberg","status_1936":"stillgelegt","aktiv_1936":false,"jahre_unbekannt":false,"jahre_widerspruch":false}},{"type":"Feature","geometry":{"type":"Point","coordinates":[7.070435,51.45125]},"properties":{"name":"Vereinigte Johann","stadtteil":"Steele","betrieb_von":"1859","betrieb_bis":"1886","liste_von":"1859","liste_bis":"1887","plan_1935":"","quelle":"https://de.wikipedia.org/wiki/Zeche_Vereinigte_Johann","status_1936":"stillgelegt","aktiv_1936":false,"jahre_unbekannt":false,"jahre_widerspruch":true}},{"type":"Feature","geometry":{"type":"Point","coordinates":[7.04511,51.367232]},"properties":{"name":"Joseph","stadtteil":"Kupferdreh","betrieb_von":"1891","betrieb_bis":"1906","liste_von":"1845","liste_bis":"1906","plan_1935":"","quelle":"https://de.wikipedia.org/wiki/Zeche_Joseph_(Essen)","status_1936":"stillgelegt","aktiv_1936":false,"jahre_unbekannt":false,"jahre_widerspruch":true}},{"type":"Feature","geometry":{"type":"Point","coordinates":[7.093976,51.410396]},"properties":{"name":"Joseph II","stadtteil":"Kupferdreh","betrieb_von":"1952","betrieb_bis":"1957","liste_von":"1952","liste_bis":"1957","plan_1935":"","quelle":"https://de.wikipedia.org/wiki/Zeche_Joseph_II","status_1936":"stillgelegt","aktiv_1936":false,"jahre_unbekannt":false,"jahre_widerspruch":false}},{"type":"Feature","geometry":{"type":"Point","coordinates":[7.04825,51.39789]},"properties":{"name":"Junkernbusch","stadtteil":"Fischlaken","betrieb_von":"1755","betrieb_bis":"1783","liste_von":"1755","liste_bis":"1783","plan_1935":"","quelle":"https://de.wikipedia.org/wiki/Zeche_Junkernbusch","status_1936":"stillgelegt","aktiv_1936":false,"jahre_unbekannt":false,"jahre_widerspruch":false}},{"type":"Feature","geometry":{"type":"Point","coordinates":[7.057407,51.390619]},"properties":{"name":"Kahrer Wiedertöpfe","stadtteil":"Werden-Hamm","betrieb_von":"1834","betrieb_bis":"1848","liste_von":"1834","liste_bis":"1848","plan_1935":"","quelle":"https://de.wikipedia.org/wiki/Zeche_Kahrer_Wiedertöpfe","status_1936":"stillgelegt","aktiv_1936":false,"jahre_unbekannt":false,"jahre_widerspruch":false}},{"type":"Feature","geometry":{"type":"Point","coordinates":[7.065408,51.38412]},"properties":{"name":"Kaiserin Augusta","stadtteil":"Fischlaken","betrieb_von":"1873","betrieb_bis":"1892","liste_von":"1873","liste_bis":"1892","plan_1935":"ehem. Zeche Kaiserin Augusta","quelle":"https://de.wikipedia.org/wiki/Zeche_Kaiserin_Augusta","status_1936":"stillgelegt","aktiv_1936":false,"jahre_unbekannt":false,"jahre_widerspruch":false}},{"type":"Feature","geometry":{"type":"Point","coordinates":[6.992178,51.399229]},"properties":{"name":"Kalksieper Erbstolln","stadtteil":"Bredeney","betrieb_von":"1800","betrieb_bis":"1865","liste_von":"1800","liste_bis":"1865","plan_1935":"","quelle":"https://de.wikipedia.org/wiki/Kalksieper_Erbstolln","status_1936":"stillgelegt","aktiv_1936":false,"jahre_unbekannt":false,"jahre_widerspruch":false}},{"type":"Feature","geometry":{"type":"Point","coordinates":[7.01203,51.405468]},"properties":{"name":"Kämpgesbank","stadtteil":"Baldeney","betrieb_von":"1833","betrieb_bis":"1872","liste_von":"1833","liste_bis":"1872","plan_1935":"","quelle":"https://de.wikipedia.org/wiki/Zeche_Kämpgesbank","status_1936":"stillgelegt","aktiv_1936":false,"jahre_unbekannt":false,"jahre_widerspruch":false}},{"type":"Feature","geometry":{"type":"Point","coordinates":[6.958762,51.371127]},"properties":{"name":"Kanzel","stadtteil":"Kettwig","betrieb_von":"1859","betrieb_bis":"1865","liste_von":"1855","liste_bis":"1865","plan_1935":"","quelle":"https://de.wikipedia.org/wiki/Zeche_Kanzel","status_1936":"stillgelegt","aktiv_1936":false,"jahre_unbekannt":false,"jahre_widerspruch":true}},{"type":"Feature","geometry":{"type":"Point","coordinates":[7.13194,51.416062]},"properties":{"name":"Kandanghauer","stadtteil":"Burgaltendorf","betrieb_von":"1840","betrieb_bis":"1867","liste_von":"1840","liste_bis":"1866","plan_1935":"","quelle":"https://de.wikipedia.org/wiki/Zeche_Kandanghauer","status_1936":"stillgelegt","aktiv_1936":false,"jahre_unbekannt":false,"jahre_widerspruch":true}},{"type":"Feature","geometry":{"type":"Point","coordinates":[7.05777778,51.4575]},"properties":{"name":"Katharina","stadtteil":"Frillendorf","betrieb_von":"1901","betrieb_bis":"1972","liste_von":"1901","liste_bis":"1972","plan_1935":"Schacht Katharina","quelle":"https://de.wikipedia.org/wiki/Zeche_Katharina","status_1936":"aktiv","aktiv_1936":true,"jahre_unbekannt":false,"jahre_widerspruch":false}},{"type":"Feature","geometry":{"type":"Point","coordinates":[7.039911,51.392405]},"properties":{"name":"Kirschbaumisches Kunstkohlenbergwerk","stadtteil":"Werden","betrieb_von":"1751","betrieb_bis":"1763","liste_von":"1751","liste_bis":"1763","plan_1935":"","quelle":"https://de.wikipedia.org/wiki/Zeche_Kirschbaumisches_Kunstkohlenbergwerk","status_1936":"stillgelegt","aktiv_1936":false,"jahre_unbekannt":false,"jahre_widerspruch":false}},{"type":"Feature","geometry":{"type":"Point","coordinates":[7.27032095,51.43918827]},"properties":{"name":"Vereinigte Klosterbusch","stadtteil":"Werden","betrieb_von":"1918","betrieb_bis":"1961","liste_von":"1857","liste_bis":"1883","plan_1935":"","quelle":"https://de.wikipedia.org/wiki/Zeche_Klosterbusch","status_1936":"stillgelegt","aktiv_1936":false,"jahre_unbekannt":false,"jahre_widerspruch":true}},{"type":"Feature","geometry":{"type":"Point","coordinates":[6.94321,51.49599]},"properties":{"name":"König Wilhelm","stadtteil":"Dellwig","betrieb_von":"1870","betrieb_bis":"","liste_von":"1870","liste_bis":"","plan_1935":"","quelle":"https://de.wikipedia.org/wiki/Zeche_König_Wilhelm","status_1936":"stillgelegt","aktiv_1936":false,"jahre_unbekannt":true,"jahre_widerspruch":false}},{"type":"Feature","geometry":{"type":"Point","coordinates":[7.066012,51.383822]},"properties":{"name":"Königin Augusta","stadtteil":"Dilldorf","betrieb_von":"1864","betrieb_bis":"1873","liste_von":"1864","liste_bis":"1873","plan_1935":"","quelle":"https://de.wikipedia.org/wiki/Zeche_Königin_Augusta","status_1936":"stillgelegt","aktiv_1936":false,"jahre_unbekannt":false,"jahre_widerspruch":false}},{"type":"Feature","geometry":{"type":"Point","coordinates":[7.03589,51.46326]},"properties":{"name":"Königin Elisabeth","stadtteil":"Frillendorf","betrieb_von":"1850","betrieb_bis":"1966","liste_von":"1845","liste_bis":"1955","plan_1935":"Zeche Königin Elisabeth","quelle":"https://de.wikipedia.org/wiki/Zeche_Königin_Elisabeth","status_1936":"unsicher","aktiv_1936":false,"jahre_unbekannt":false,"jahre_widerspruch":true}},{"type":"Feature","geometry":{"type":"Point","coordinates":[6.92583333,51.45916667]},"properties":{"name":"Kronprinz","stadtteil":"Frohnhausen, Schönebeck","betrieb_von":"1838","betrieb_bis":"1845","liste_von":"1830","liste_bis":"","plan_1935":"e Kronprinz (Fortsetzung von \"Zeche\" aus k_09_01)","quelle":"https://de.wikipedia.org/wiki/Zeche_Kronprinz","status_1936":"stillgelegt","aktiv_1936":false,"jahre_unbekannt":false,"jahre_widerspruch":false}},{"type":"Feature","geometry":{"type":"Point","coordinates":[7.00563,51.404085]},"properties":{"name":"Vereinigte Krusenberg","stadtteil":"Bredeney","betrieb_von":"1841","betrieb_bis":"1878","liste_von":"1805","liste_bis":"1878","plan_1935":"","quelle":"https://de.wikipedia.org/wiki/Zeche_Vereinigte_Krusenberg","status_1936":"stillgelegt","aktiv_1936":false,"jahre_unbekannt":false,"jahre_widerspruch":true}},{"type":"Feature","geometry":{"type":"Point","coordinates":[7.0523,51.395]},"properties":{"name":"Kucks","stadtteil":"Werden","betrieb_von":"1802","betrieb_bis":"1820","liste_von":"1802","liste_bis":"1820","plan_1935":"","quelle":"https://de.wikipedia.org/wiki/Zeche_Kucks","status_1936":"stillgelegt","aktiv_1936":false,"jahre_unbekannt":false,"jahre_widerspruch":false}},{"type":"Feature","geometry":{"type":"Point","coordinates":[7.0523,51.395]},"properties":{"name":"Vereinigte Kucks & Schinkenbank","stadtteil":"Werden","betrieb_von":"1820","betrieb_bis":"1841","liste_von":"1820","liste_bis":"1841","plan_1935":"","quelle":"https://de.wikipedia.org/wiki/Zeche_Vereinigte_Kucks_&_Schinkenbank","status_1936":"stillgelegt","aktiv_1936":false,"jahre_unbekannt":false,"jahre_widerspruch":false}},{"type":"Feature","geometry":{"type":"Point","coordinates":[7.0537,51.4335]},"properties":{"name":"Kunstwerk","stadtteil":"Bergerhausen","betrieb_von":"1764","betrieb_bis":"1865","liste_von":"1764","liste_bis":"1865","plan_1935":"","quelle":"https://de.wikipedia.org/wiki/Zeche_Kunstwerk","status_1936":"stillgelegt","aktiv_1936":false,"jahre_unbekannt":false,"jahre_widerspruch":false}},{"type":"Feature","geometry":{"type":"Point","coordinates":[7.00555556,51.42166667]},"properties":{"name":"Langenbrahm","stadtteil":"Rüttenscheid","betrieb_von":"1800","betrieb_bis":"1966","liste_von":"1800","liste_bis":"1983","plan_1935":"Zeche Langenbrahm","quelle":"https://de.wikipedia.org/wiki/Zeche_Langenbrahm","status_1936":"unsicher","aktiv_1936":false,"jahre_unbekannt":false,"jahre_widerspruch":true}},{"type":"Feature","geometry":{"type":"Point","coordinates":[7.055318,51.392826]},"properties":{"name":"Vereinigte Louise","stadtteil":"Werden-Fischlaken","betrieb_von":"1839","betrieb_bis":"1903","liste_von":"1839","liste_bis":"1901","plan_1935":"","quelle":"https://de.wikipedia.org/wiki/Zeche_Vereinigte_Louise_(Essen)","status_1936":"stillgelegt","aktiv_1936":false,"jahre_unbekannt":false,"jahre_widerspruch":true}},{"type":"Feature","geometry":{"type":"Point","coordinates":[7.03483,51.43274]},"properties":{"name":"Ludwig","stadtteil":"Bergerhausen","betrieb_von":"1860","betrieb_bis":"1966","liste_von":"1830","liste_bis":"1947","plan_1935":"Zeche Ludwig","quelle":"https://de.wikipedia.org/wiki/Zeche_Ludwig","status_1936":"aktiv","aktiv_1936":true,"jahre_unbekannt":false,"jahre_widerspruch":true}},{"type":"Feature","geometry":{"type":"Point","coordinates":[7.037217,51.399854]},"properties":{"name":"Maasbank","stadtteil":"Werden-Fischlaken","betrieb_von":"1760","betrieb_bis":"1854","liste_von":"1760","liste_bis":"1854","plan_1935":"","quelle":"https://de.wikipedia.org/wiki/Zeche_Maasbank","status_1936":"stillgelegt","aktiv_1936":false,"jahre_unbekannt":false,"jahre_widerspruch":false}},{"type":"Feature","geometry":{"type":"Point","coordinates":[7.00707,51.52605]},"properties":{"name":"Mathias Stinnes","stadtteil":"Karnap","betrieb_von":"1872","betrieb_bis":"1972","liste_von":"1854","liste_bis":"1969","plan_1935":"Zeche Math. Stinnes","quelle":"https://de.wikipedia.org/wiki/Zeche_Mathias_Stinnes","status_1936":"aktiv","aktiv_1936":true,"jahre_unbekannt":false,"jahre_widerspruch":true}},{"type":"Feature","geometry":{"type":"Point","coordinates":[7.108444,51.438013]},"properties":{"name":"Mecklingsbänker Erbstollen","stadtteil":"Horst","betrieb_von":"1838","betrieb_bis":"1877","liste_von":"1786","liste_bis":"1897","plan_1935":"","quelle":"https://de.wikipedia.org/wiki/Zeche_Mecklingsbänker_Erbstollen","status_1936":"stillgelegt","aktiv_1936":false,"jahre_unbekannt":false,"jahre_widerspruch":true}},{"type":"Feature","geometry":{"type":"Point","coordinates":[7.098675,51.434085]},"properties":{"name":"Mecklingsbank","stadtteil":"Steele","betrieb_von":"1725","betrieb_bis":"1840","liste_von":"1725","liste_bis":"1843","plan_1935":"","quelle":"https://de.wikipedia.org/wiki/Zeche_Mecklingsbank","status_1936":"stillgelegt","aktiv_1936":false,"jahre_unbekannt":false,"jahre_widerspruch":true}},{"type":"Feature","geometry":{"type":"Point","coordinates":[6.994632,51.392267]},"properties":{"name":"Mühle","stadtteil":"Werden","betrieb_von":"1836","betrieb_bis":"1900","liste_von":"1834","liste_bis":"1900","plan_1935":"","quelle":"https://de.wikipedia.org/wiki/Zeche_Mühle","status_1936":"stillgelegt","aktiv_1936":false,"jahre_unbekannt":false,"jahre_widerspruch":true}},{"type":"Feature","geometry":{"type":"Point","coordinates":[7.126401,51.423907]},"properties":{"name":"Mülheimerglück","stadtteil":"Burgaltendorf","betrieb_von":"1794","betrieb_bis":"1840","liste_von":"1787","liste_bis":"1840","plan_1935":"","quelle":"https://de.wikipedia.org/wiki/Zeche_Mülheimerglück","status_1936":"stillgelegt","aktiv_1936":false,"jahre_unbekannt":false,"jahre_widerspruch":true}},{"type":"Feature","geometry":{"type":"Point","coordinates":[7.11483333,51.42191667]},"properties":{"name":"Vereinigte Mülheimerglück","stadtteil":"Burgaltendorf","betrieb_von":"1840","betrieb_bis":"1927","liste_von":"1840","liste_bis":"1927","plan_1935":"","quelle":"https://de.wikipedia.org/wiki/Zeche_Vereinigte_Mülheimerglück","status_1936":"stillgelegt","aktiv_1936":false,"jahre_unbekannt":false,"jahre_widerspruch":false}},{"type":"Feature","geometry":{"type":"Point","coordinates":[7.097067,51.393458]},"properties":{"name":"Mühlenbank","stadtteil":"Kupferdreh","betrieb_von":"1856","betrieb_bis":"1872","liste_von":"1800","liste_bis":"1872","plan_1935":"","quelle":"https://de.wikipedia.org/wiki/Zeche_Mühlenbank_(Essen)","status_1936":"stillgelegt","aktiv_1936":false,"jahre_unbekannt":false,"jahre_widerspruch":true}},{"type":"Feature","geometry":{"type":"Point","coordinates":[7.075097,51.398654]},"properties":{"name":"Mühlmannsbank","stadtteil":"Heisingen","betrieb_von":"1827","betrieb_bis":"1872","liste_von":"1782","liste_bis":"1872","plan_1935":"","quelle":"https://de.wikipedia.org/wiki/Zeche_Mühlmannsbank","status_1936":"stillgelegt","aktiv_1936":false,"jahre_unbekannt":false,"jahre_widerspruch":true}},{"type":"Feature","geometry":{"type":"Point","coordinates":[7.07526389,51.39683333]},"properties":{"name":"Mühlmannsdickebank","stadtteil":"Heisingen","betrieb_von":"1792","betrieb_bis":"1870","liste_von":"1792","liste_bis":"1870","plan_1935":"","quelle":"https://de.wikipedia.org/wiki/Zeche_Mühlmannsdickebank","status_1936":"stillgelegt","aktiv_1936":false,"jahre_unbekannt":false,"jahre_widerspruch":false}},{"type":"Feature","geometry":{"type":"Point","coordinates":[7.110193,51.387611]},"properties":{"name":"Nachtigall","stadtteil":"Kupferdreh","betrieb_von":"1784","betrieb_bis":"1875","liste_von":"1784","liste_bis":"1873","plan_1935":"","quelle":"https://de.wikipedia.org/wiki/Zeche_Nachtigall_(Essen)","status_1936":"stillgelegt","aktiv_1936":false,"jahre_unbekannt":false,"jahre_widerspruch":true}},{"type":"Feature","geometry":{"type":"Point","coordinates":[6.95611111,51.48416667]},"properties":{"name":"Neu-Cöln","stadtteil":"Bergeborbeck","betrieb_von":"1855","betrieb_bis":"1931","liste_von":"","liste_bis":"1930","plan_1935":"","quelle":"https://de.wikipedia.org/wiki/Zeche_Neu-Cöln","status_1936":"stillgelegt","aktiv_1936":false,"jahre_unbekannt":false,"jahre_widerspruch":false}},{"type":"Feature","geometry":{"type":"Point","coordinates":[6.96408,51.45845]},"properties":{"name":"Neuschölerpad","stadtteil":"Altendorf","betrieb_von":"1851","betrieb_bis":"1875","liste_von":"1851","liste_bis":"1898","plan_1935":"","quelle":"https://de.wikipedia.org/wiki/Zeche_Neuschölerpad","status_1936":"stillgelegt","aktiv_1936":false,"jahre_unbekannt":false,"jahre_widerspruch":true}},{"type":"Feature","geometry":{"type":"Point","coordinates":[6.937,51.47141]},"properties":{"name":"Neuwesel","stadtteil":"Borbeck","betrieb_von":"1842","betrieb_bis":"1889","liste_von":"","liste_bis":"1920","plan_1935":"Zeche Neuwesel","quelle":"https://de.wikipedia.org/wiki/Zeche_Neuwesel","status_1936":"stillgelegt","aktiv_1936":false,"jahre_unbekannt":false,"jahre_widerspruch":false}},{"type":"Feature","geometry":{"type":"Point","coordinates":[6.986489,51.460104]},"properties":{"name":"Neue Ak","stadtteil":"Altendorf","betrieb_von":"1797","betrieb_bis":"1804","liste_von":"1797","liste_bis":"1806","plan_1935":"","quelle":"https://de.wikipedia.org/wiki/Zeche_Neue_Ak","status_1936":"stillgelegt","aktiv_1936":false,"jahre_unbekannt":false,"jahre_widerspruch":true}},{"type":"Feature","geometry":{"type":"Point","coordinates":[7.129312,51.41789]},"properties":{"name":"Neue Aproche","stadtteil":"Burgaltendorf","betrieb_von":"1752","betrieb_bis":"1872","liste_von":"1752","liste_bis":"1872","plan_1935":"","quelle":"https://de.wikipedia.org/wiki/Zeche_Neue_Aproche","status_1936":"stillgelegt","aktiv_1936":false,"jahre_unbekannt":false,"jahre_widerspruch":false}},{"type":"Feature","geometry":{"type":"Point","coordinates":[7.126586,51.415348]},"properties":{"name":"Neue Sackberg","stadtteil":"Burgaltendorf","betrieb_von":"1755","betrieb_bis":"1802","liste_von":"1754","liste_bis":"1802","plan_1935":"","quelle":"https://de.wikipedia.org/wiki/Zeche_Neue_Sackberg","status_1936":"stillgelegt","aktiv_1936":false,"jahre_unbekannt":false,"jahre_widerspruch":true}},{"type":"Feature","geometry":{"type":"Point","coordinates":[7.073,51.4357]},"properties":{"name":"Neuglück","stadtteil":"Überruhr","betrieb_von":"1787","betrieb_bis":"1859","liste_von":"1787","liste_bis":"1859","plan_1935":"","quelle":"https://de.wikipedia.org/wiki/Zeche_Neuglück_(Essen)","status_1936":"stillgelegt","aktiv_1936":false,"jahre_unbekannt":false,"jahre_widerspruch":false}},{"type":"Feature","geometry":{"type":"Point","coordinates":[7.100944,51.39723]},"properties":{"name":"Neuglück in Breuerssiepen","stadtteil":"Kupferdreh","betrieb_von":"1827","betrieb_bis":"1882","liste_von":"1825","liste_bis":"1882","plan_1935":"","quelle":"https://de.wikipedia.org/wiki/Zeche_Neuglück_in_Breuerssiepen","status_1936":"stillgelegt","aktiv_1936":false,"jahre_unbekannt":false,"jahre_widerspruch":true}},{"type":"Feature","geometry":{"type":"Point","coordinates":[7.035353,51.400004]},"properties":{"name":"Nierbank","stadtteil":"Werden-Fischlaken","betrieb_von":"","betrieb_bis":"1856","liste_von":"","liste_bis":"1856","plan_1935":"","quelle":"https://de.wikipedia.org/wiki/Zeche_Nierbank","status_1936":"stillgelegt","aktiv_1936":false,"jahre_unbekannt":true,"jahre_widerspruch":false}},{"type":"Feature","geometry":{"type":"Point","coordinates":[7.042923,51.386607]},"properties":{"name":"Nöckerskottenbank","stadtteil":"Werden-Fischlaken","betrieb_von":"1855","betrieb_bis":"1924","liste_von":"1788","liste_bis":"1924","plan_1935":"","quelle":"https://de.wikipedia.org/wiki/Zeche_Nöckerskottenbank","status_1936":"stillgelegt","aktiv_1936":false,"jahre_unbekannt":false,"jahre_widerspruch":true}},{"type":"Feature","geometry":{"type":"Point","coordinates":[7.072996,51.406798]},"properties":{"name":"Nottekampsbank","stadtteil":"Heisingen","betrieb_von":"1805","betrieb_bis":"1880","liste_von":"1805","liste_bis":"1880","plan_1935":"","quelle":"https://de.wikipedia.org/wiki/Zeche_Nottekampsbank","status_1936":"stillgelegt","aktiv_1936":false,"jahre_unbekannt":false,"jahre_widerspruch":false}},{"type":"Feature","geometry":{"type":"Point","coordinates":[7.072996,51.406798]},"properties":{"name":"Nottenkampsbank I","stadtteil":"Heisingen","betrieb_von":"1880","betrieb_bis":"1924","liste_von":"1880","liste_bis":"1924","plan_1935":"","quelle":"https://de.wikipedia.org/wiki/Zeche_Nottekampsbank_I","status_1936":"stillgelegt","aktiv_1936":false,"jahre_unbekannt":false,"jahre_widerspruch":false}},{"type":"Feature","geometry":{"type":"Point","coordinates":[7.031379,51.398228]},"properties":{"name":"Oberschmalscheid","stadtteil":"Werden-Fischlaken","betrieb_von":"1776","betrieb_bis":"1829","liste_von":"","liste_bis":"1860","plan_1935":"","quelle":"https://de.wikipedia.org/wiki/Zeche_Oberschmalscheid","status_1936":"stillgelegt","aktiv_1936":false,"jahre_unbekannt":false,"jahre_widerspruch":false}},{"type":"Feature","geometry":{"type":"Point","coordinates":[7.054768,51.394065]},"properties":{"name":"Paul","stadtteil":"Werden","betrieb_von":"1765","betrieb_bis":"1911","liste_von":"1763","liste_bis":"1911","plan_1935":"","quelle":"https://de.wikipedia.org/wiki/Zeche_Paul","status_1936":"stillgelegt","aktiv_1936":false,"jahre_unbekannt":false,"jahre_widerspruch":true}},{"type":"Feature","geometry":{"type":"Point","coordinates":[6.99838889,51.37438889]},"properties":{"name":"Pauline","stadtteil":"Werden","betrieb_von":"1880","betrieb_bis":"1916","liste_von":"1880","liste_bis":"1916","plan_1935":"ehem. Zeche Pauline","quelle":"https://de.wikipedia.org/wiki/Zeche_Pauline","status_1936":"stillgelegt","aktiv_1936":false,"jahre_unbekannt":false,"jahre_widerspruch":false}},{"type":"Feature","geometry":{"type":"Point","coordinates":[7.067631,51.415677]},"properties":{"name":"Plaetzgesbank","stadtteil":"Heisingen","betrieb_von":"1830","betrieb_bis":"1959","liste_von":"1830","liste_bis":"1959","plan_1935":"","quelle":"https://de.wikipedia.org/wiki/Zeche_Plaetzgesbank","status_1936":"aktiv","aktiv_1936":true,"jahre_unbekannt":false,"jahre_widerspruch":false}},{"type":"Feature","geometry":{"type":"Point","coordinates":[7.04216,51.39604]},"properties":{"name":"Vereinigte Pörtingssiepen","stadtteil":"Heidhausen","betrieb_von":"1780","betrieb_bis":"1975","liste_von":"1780","liste_bis":"1975","plan_1935":"Zeche Pörtingssiepen","quelle":"","status_1936":"aktiv","aktiv_1936":true,"jahre_unbekannt":false,"jahre_widerspruch":false}},{"type":"Feature","geometry":{"type":"Point","coordinates":[7.124805,51.41318]},"properties":{"name":"Vereinigte Preußische Adler","stadtteil":"Byfang, Burgaltendorf","betrieb_von":"1834","betrieb_bis":"1878","liste_von":"1765","liste_bis":"1921","plan_1935":"","quelle":"https://de.wikipedia.org/wiki/Zeche_Vereinigte_Preußische_Adler","status_1936":"stillgelegt","aktiv_1936":false,"jahre_unbekannt":false,"jahre_widerspruch":true}},{"type":"Feature","geometry":{"type":"Point","coordinates":[6.992841,51.376602]},"properties":{"name":"Preutenborbeckssiepen","stadtteil":"Werden","betrieb_von":"1751","betrieb_bis":"1860","liste_von":"1751","liste_bis":"1909","plan_1935":"","quelle":"https://de.wikipedia.org/wiki/Zeche_Preutenborbeckssiepen","status_1936":"stillgelegt","aktiv_1936":false,"jahre_unbekannt":false,"jahre_widerspruch":true}},{"type":"Feature","geometry":{"type":"Point","coordinates":[7.07866,51.3905]},"properties":{"name":"Prinz Friedrich","stadtteil":"Kupferdreh","betrieb_von":"1923","betrieb_bis":"1931","liste_von":"1920","liste_bis":"1973","plan_1935":"Zeche Prinz Friedr.","quelle":"https://de.wikipedia.org/wiki/Zeche_Prinz_Friedrich","status_1936":"stillgelegt","aktiv_1936":false,"jahre_unbekannt":false,"jahre_widerspruch":true}},{"type":"Feature","geometry":{"type":"Point","coordinates":[7.086717,51.399821]},"properties":{"name":"Prinz Wilhelm","stadtteil":"Byfang","betrieb_von":"1854","betrieb_bis":"1903","liste_von":"1846","liste_bis":"1920","plan_1935":"Zeche Prinz Wilhelm","quelle":"https://de.wikipedia.org/wiki/Zeche_Prinz_Wilhelm","status_1936":"stillgelegt","aktiv_1936":false,"jahre_unbekannt":false,"jahre_widerspruch":true}},{"type":"Feature","geometry":{"type":"Point","coordinates":[7.06529,51.383283]},"properties":{"name":"Quetterbank","stadtteil":"Werden-Hamm","betrieb_von":"1782","betrieb_bis":"1846","liste_von":"1782","liste_bis":"1853","plan_1935":"","quelle":"https://de.wikipedia.org/wiki/Zeche_Quetterbank","status_1936":"stillgelegt","aktiv_1936":false,"jahre_unbekannt":false,"jahre_widerspruch":true}},{"type":"Feature","geometry":{"type":"Point","coordinates":[7.052851,51.402013]},"properties":{"name":"Rauensiepen","stadtteil":"Heisingen","betrieb_von":"1773","betrieb_bis":"1832","liste_von":"1773","liste_bis":"1858","plan_1935":"","quelle":"https://de.wikipedia.org/wiki/Zeche_Rauensiepen","status_1936":"stillgelegt","aktiv_1936":false,"jahre_unbekannt":false,"jahre_widerspruch":true}},{"type":"Feature","geometry":{"type":"Point","coordinates":[6.997347,51.372906]},"properties":{"name":"Redlichkeit","stadtteil":"Werden-Heisingen","betrieb_von":"1793","betrieb_bis":"1876","liste_von":"1792","liste_bis":"1900","plan_1935":"","quelle":"https://de.wikipedia.org/wiki/Zeche_Redlichkeit","status_1936":"stillgelegt","aktiv_1936":false,"jahre_unbekannt":false,"jahre_widerspruch":true}},{"type":"Feature","geometry":{"type":"Point","coordinates":[7.106057,51.398738]},"properties":{"name":"Regina","stadtteil":"Kupferdreh","betrieb_von":"1952","betrieb_bis":"1962","liste_von":"1952","liste_bis":"1963","plan_1935":"","quelle":"https://de.wikipedia.org/wiki/Zeche_Regina_(Essen)","status_1936":"stillgelegt","aktiv_1936":false,"jahre_unbekannt":false,"jahre_widerspruch":true}},{"type":"Feature","geometry":{"type":"Point","coordinates":[6.982847,51.43574]},"properties":{"name":"Rettelstrucker Stolln","stadtteil":"Holsterhausen","betrieb_von":"1809","betrieb_bis":"1846","liste_von":"1748","liste_bis":"1856","plan_1935":"","quelle":"https://de.wikipedia.org/wiki/Zeche_Rettelstrucker_Stolln","status_1936":"stillgelegt","aktiv_1936":false,"jahre_unbekannt":false,"jahre_widerspruch":true}},{"type":"Feature","geometry":{"type":"Point","coordinates":[7.044542,51.388606]},"properties":{"name":"Richradt","stadtteil":"Fischlaken","betrieb_von":"1578","betrieb_bis":"1910","liste_von":"1578","liste_bis":"1910","plan_1935":"","quelle":"https://de.wikipedia.org/wiki/Zeche_Richradt","status_1936":"stillgelegt","aktiv_1936":false,"jahre_unbekannt":false,"jahre_widerspruch":false}},{"type":"Feature","geometry":{"type":"Point","coordinates":[6.993871,51.393583]},"properties":{"name":"Rosalie","stadtteil":"Bredeney","betrieb_von":"1667","betrieb_bis":"1871","liste_von":"1667","liste_bis":"1871","plan_1935":"","quelle":"https://de.wikipedia.org/wiki/Zeche_Rosalie","status_1936":"stillgelegt","aktiv_1936":false,"jahre_unbekannt":false,"jahre_widerspruch":false}},{"type":"Feature","geometry":{"type":"Point","coordinates":[6.985159,51.449353]},"properties":{"name":"Röttgersbank","stadtteil":"Altendorf","betrieb_von":"1803","betrieb_bis":"1808","liste_von":"1749","liste_bis":"1808","plan_1935":"","quelle":"https://de.wikipedia.org/wiki/Zeche_Röttgersbank","status_1936":"stillgelegt","aktiv_1936":false,"jahre_unbekannt":false,"jahre_widerspruch":true}},{"type":"Feature","geometry":{"type":"Point","coordinates":[6.97915,51.36462]},"properties":{"name":"Rudolph","stadtteil":"Kettwig","betrieb_von":"1830","betrieb_bis":"1966","liste_von":"1866","liste_bis":"1966","plan_1935":"","quelle":"https://de.wikipedia.org/wiki/Zeche_Rudolph_(Essen)","status_1936":"stillgelegt","aktiv_1936":false,"jahre_unbekannt":false,"jahre_widerspruch":true}},{"type":"Feature","geometry":{"type":"Point","coordinates":[6.99111,51.45865]},"properties":{"name":"Sälzer & Neuack","stadtteil":"Westviertel","betrieb_von":"","betrieb_bis":"1800","liste_von":"","liste_bis":"1800","plan_1935":"Zeche Sälzer u. Neuack","quelle":"","status_1936":"aktiv","aktiv_1936":true,"jahre_unbekannt":true,"jahre_widerspruch":false}},{"type":"Feature","geometry":{"type":"Point","coordinates":[7.082851,51.408675]},"properties":{"name":"Sandbank","stadtteil":"Überruhr","betrieb_von":"1803","betrieb_bis":"1876","liste_von":"1803","liste_bis":"1891","plan_1935":"","quelle":"https://de.wikipedia.org/wiki/Zeche_Sandbank","status_1936":"stillgelegt","aktiv_1936":false,"jahre_unbekannt":false,"jahre_widerspruch":true}},{"type":"Feature","geometry":{"type":"Point","coordinates":[7.053866,51.39452]},"properties":{"name":"Schinkenbank","stadtteil":"Werden-Hamm","betrieb_von":"1802","betrieb_bis":"1841","liste_von":"1790","liste_bis":"1892","plan_1935":"","quelle":"https://de.wikipedia.org/wiki/Zeche_Schinkenbank","status_1936":"stillgelegt","aktiv_1936":false,"jahre_unbekannt":false,"jahre_widerspruch":true}},{"type":"Feature","geometry":{"type":"Point","coordinates":[7.038117,51.387676]},"properties":{"name":"Schinkenbank in der Honschaft Fischlaken","stadtteil":"Werden-Fischlaken","betrieb_von":"1800","betrieb_bis":"1820","liste_von":"1800","liste_bis":"1820","plan_1935":"","quelle":"https://de.wikipedia.org/wiki/Zeche_Schinkenbank_in_der_Honschaft_Fischlaken","status_1936":"stillgelegt","aktiv_1936":false,"jahre_unbekannt":false,"jahre_widerspruch":false}},{"type":"Feature","geometry":{"type":"Point","coordinates":[6.949609,51.370507]},"properties":{"name":"Schmachtenberg","stadtteil":"Kettwig","betrieb_von":"1748","betrieb_bis":"1855","liste_von":"1748","liste_bis":"1855","plan_1935":"","quelle":"https://de.wikipedia.org/wiki/Zeche_Schmachtenberg","status_1936":"stillgelegt","aktiv_1936":false,"jahre_unbekannt":false,"jahre_widerspruch":false}},{"type":"Feature","geometry":{"type":"Point","coordinates":[7.04395,51.42841]},"properties":{"name":"Schnabel ins Osten","stadtteil":"Rellinghausen","betrieb_von":"1902","betrieb_bis":"1910","liste_von":"1767","liste_bis":"1912","plan_1935":"","quelle":"https://de.wikipedia.org/wiki/Zeche_Schnabel_ins_Osten","status_1936":"stillgelegt","aktiv_1936":false,"jahre_unbekannt":false,"jahre_widerspruch":true}},{"type":"Feature","geometry":{"type":"Point","coordinates":[7.111845,51.412249]},"properties":{"name":"Schrutenberend","stadtteil":"Burgaltendorf","betrieb_von":"1737","betrieb_bis":"1802","liste_von":"1724","liste_bis":"1802","plan_1935":"","quelle":"https://de.wikipedia.org/wiki/Zeche_Schrutenberend","status_1936":"stillgelegt","aktiv_1936":false,"jahre_unbekannt":false,"jahre_widerspruch":true}},{"type":"Feature","geometry":{"type":"Point","coordinates":[7.002282,51.4516]},"properties":{"name":"Secretariusak","stadtteil":"Stadtkern","betrieb_von":"1725","betrieb_bis":"1805","liste_von":"1725","liste_bis":"1805","plan_1935":"","quelle":"https://de.wikipedia.org/wiki/Zeche_Secretariusak","status_1936":"stillgelegt","aktiv_1936":false,"jahre_unbekannt":false,"jahre_widerspruch":false}},{"type":"Feature","geometry":{"type":"Point","coordinates":[7.0556,51.3924]},"properties":{"name":"Silberbank","stadtteil":"Werden-Hamm","betrieb_von":"1800","betrieb_bis":"1830","liste_von":"1800","liste_bis":"1830","plan_1935":"","quelle":"https://de.wikipedia.org/wiki/Zeche_Silberbank","status_1936":"stillgelegt","aktiv_1936":false,"jahre_unbekannt":false,"jahre_widerspruch":false}},{"type":"Feature","geometry":{"type":"Point","coordinates":[7.023869,51.397586]},"properties":{"name":"Stahlenbergsbank","stadtteil":"Werden","betrieb_von":"1830","betrieb_bis":"1892","liste_von":"1826","liste_bis":"1892","plan_1935":"","quelle":"https://de.wikipedia.org/wiki/Zeche_Stahlenbergsbank","status_1936":"stillgelegt","aktiv_1936":false,"jahre_unbekannt":false,"jahre_widerspruch":true}},{"type":"Feature","geometry":{"type":"Point","coordinates":[7.10037,51.41141]},"properties":{"name":"Steingatt","stadtteil":"Burgaltendorf, Byfang","betrieb_von":"1702","betrieb_bis":"1904","liste_von":"1702","liste_bis":"1904","plan_1935":"Z.Steingatt","quelle":"https://de.wikipedia.org/wiki/Zeche_Steingatt","status_1936":"stillgelegt","aktiv_1936":false,"jahre_unbekannt":false,"jahre_widerspruch":false}},{"type":"Feature","geometry":{"type":"Point","coordinates":[7.01528549,51.40086564]},"properties":{"name":"Vereinigte Stöckgesbank & Dodelle","stadtteil":"Werden","betrieb_von":"1788","betrieb_bis":"1897","liste_von":"1868","liste_bis":"1891","plan_1935":"","quelle":"https://de.wikipedia.org/wiki/Zeche_Vereinigte_Stöckgesbank_&_Dodelle","status_1936":"stillgelegt","aktiv_1936":false,"jahre_unbekannt":false,"jahre_widerspruch":true}},{"type":"Feature","geometry":{"type":"Point","coordinates":[7.046034,51.405785]},"properties":{"name":"Sutansbank","stadtteil":"Heisingen","betrieb_von":"1770","betrieb_bis":"1859","liste_von":"1770","liste_bis":"1859","plan_1935":"","quelle":"https://de.wikipedia.org/wiki/Zeche_Sutansbank","status_1936":"stillgelegt","aktiv_1936":false,"jahre_unbekannt":false,"jahre_widerspruch":false}},{"type":"Feature","geometry":{"type":"Point","coordinates":[7.09833333,51.42305556]},"properties":{"name":"Theodor","stadtteil":"Burgaltendorf","betrieb_von":"1933","betrieb_bis":"1968","liste_von":"1830","liste_bis":"1968","plan_1935":"","quelle":"https://de.wikipedia.org/wiki/Zeche_Theodor","status_1936":"aktiv","aktiv_1936":true,"jahre_unbekannt":false,"jahre_widerspruch":true}},{"type":"Feature","geometry":{"type":"Point","coordinates":[7.091307,51.408266]},"properties":{"name":"Trompete","stadtteil":"Byfang","betrieb_von":"1761","betrieb_bis":"1856","liste_von":"1761","liste_bis":"1856","plan_1935":"","quelle":"https://de.wikipedia.org/wiki/Zeche_Trompete","status_1936":"stillgelegt","aktiv_1936":false,"jahre_unbekannt":false,"jahre_widerspruch":false}},{"type":"Feature","geometry":{"type":"Point","coordinates":[7.082525,51.385017]},"properties":{"name":"Trompette","stadtteil":"Kupferdreh-Dilldorf","betrieb_von":"1856","betrieb_bis":"1869","liste_von":"1850","liste_bis":"1906","plan_1935":"","quelle":"https://de.wikipedia.org/wiki/Zeche_Trompette_(Essen)","status_1936":"stillgelegt","aktiv_1936":false,"jahre_unbekannt":false,"jahre_widerspruch":true}},{"type":"Feature","geometry":{"type":"Point","coordinates":[7.017131,51.417248]},"properties":{"name":"Trotz","stadtteil":"Bredeney","betrieb_von":"1802","betrieb_bis":"1840","liste_von":"1755","liste_bis":"1840","plan_1935":"","quelle":"https://de.wikipedia.org/wiki/Zeche_Trotz","status_1936":"stillgelegt","aktiv_1936":false,"jahre_unbekannt":false,"jahre_widerspruch":true}},{"type":"Feature","geometry":{"type":"Point","coordinates":[7.086229,51.415186]},"properties":{"name":"Übereinkunft","stadtteil":"Überruhr","betrieb_von":"1834","betrieb_bis":"1923","liste_von":"1834","liste_bis":"1925","plan_1935":"","quelle":"https://de.wikipedia.org/wiki/Zeche_Übereinkunft","status_1936":"stillgelegt","aktiv_1936":false,"jahre_unbekannt":false,"jahre_widerspruch":true}},{"type":"Feature","geometry":{"type":"Point","coordinates":[7.01305556,51.4675]},"properties":{"name":"Victoria Mathias","stadtteil":"Nordviertel","betrieb_von":"1844","betrieb_bis":"1965","liste_von":"1845","liste_bis":"1967","plan_1935":"Zeche Victoria Mathias","quelle":"https://de.wikipedia.org/wiki/Zeche_Victoria_Mathias","status_1936":"unsicher","aktiv_1936":false,"jahre_unbekannt":false,"jahre_widerspruch":true}},{"type":"Feature","geometry":{"type":"Point","coordinates":[7.11323,51.38326]},"properties":{"name":"Viktoria","stadtteil":"Kupferdreh","betrieb_von":"1857","betrieb_bis":"1945","liste_von":"1857","liste_bis":"1945","plan_1935":"Zeche Victoria","quelle":"","status_1936":"stillgelegt","aktiv_1936":false,"jahre_unbekannt":false,"jahre_widerspruch":false}},{"type":"Feature","geometry":{"type":"Point","coordinates":[7.063211,51.393569]},"properties":{"name":"Voßhege","stadtteil":"Heisingen","betrieb_von":"1800","betrieb_bis":"1871","liste_von":"1800","liste_bis":"1952","plan_1935":"","quelle":"https://de.wikipedia.org/wiki/Zeche_Voßhege","status_1936":"stillgelegt","aktiv_1936":false,"jahre_unbekannt":false,"jahre_widerspruch":true}},{"type":"Feature","geometry":{"type":"Point","coordinates":[7.102,51.4385]},"properties":{"name":"Wasserjungfer","stadtteil":"Horst","betrieb_von":"1845","betrieb_bis":"1858","liste_von":"1798","liste_bis":"1901","plan_1935":"","quelle":"https://de.wikipedia.org/wiki/Zeche_Wasserjungfer","status_1936":"stillgelegt","aktiv_1936":false,"jahre_unbekannt":false,"jahre_widerspruch":true}},{"type":"Feature","geometry":{"type":"Point","coordinates":[7.062964,51.395189]},"properties":{"name":"Wasserschneppe","stadtteil":"Heisingen","betrieb_von":"1792","betrieb_bis":"1815","liste_von":"1792","liste_bis":"1815","plan_1935":"","quelle":"https://de.wikipedia.org/wiki/Zeche_Wasserschneppe","status_1936":"stillgelegt","aktiv_1936":false,"jahre_unbekannt":false,"jahre_widerspruch":false}},{"type":"Feature","geometry":{"type":"Point","coordinates":[7.062342,51.395203]},"properties":{"name":"Vereinigte Wasserschneppe","stadtteil":"Heisingen","betrieb_von":"1819","betrieb_bis":"1880","liste_von":"1815","liste_bis":"1880","plan_1935":"","quelle":"https://de.wikipedia.org/wiki/Zeche_Vereinigte_Wasserschneppe","status_1936":"stillgelegt","aktiv_1936":false,"jahre_unbekannt":false,"jahre_widerspruch":true}},{"type":"Feature","geometry":{"type":"Point","coordinates":[7.106414,51.42915]},"properties":{"name":"Wecklenbank","stadtteil":"Horst-Eiberg","betrieb_von":"1737","betrieb_bis":"1836","liste_von":"1737","liste_bis":"1882","plan_1935":"","quelle":"https://de.wikipedia.org/wiki/Zeche_Wecklenbank","status_1936":"stillgelegt","aktiv_1936":false,"jahre_unbekannt":false,"jahre_widerspruch":true}},{"type":"Feature","geometry":{"type":"Point","coordinates":[7.0473,51.405899]},"properties":{"name":"Werthsbank","stadtteil":"Heisingen","betrieb_von":"1773","betrieb_bis":"1859","liste_von":"1773","liste_bis":"1899","plan_1935":"","quelle":"https://de.wikipedia.org/wiki/Zeche_Werthsbank","status_1936":"stillgelegt","aktiv_1936":false,"jahre_unbekannt":false,"jahre_widerspruch":true}},{"type":"Feature","geometry":{"type":"Point","coordinates":[7.08292,51.398817]},"properties":{"name":"Wohlgemuth","stadtteil":"Kupferdreh","betrieb_von":"1792","betrieb_bis":"1856","liste_von":"1792","liste_bis":"1856","plan_1935":"","quelle":"https://de.wikipedia.org/wiki/Zeche_Wohlgemuth","status_1936":"stillgelegt","aktiv_1936":false,"jahre_unbekannt":false,"jahre_widerspruch":false}},{"type":"Feature","geometry":{"type":"Point","coordinates":[7.1075,51.42972222]},"properties":{"name":"Wohlverwahrt","stadtteil":"Horst","betrieb_von":"1791","betrieb_bis":"1962","liste_von":"1918","liste_bis":"1962","plan_1935":"","quelle":"https://de.wikipedia.org/wiki/Zeche_Wohlverwahrt","status_1936":"unsicher","aktiv_1936":false,"jahre_unbekannt":false,"jahre_widerspruch":true}},{"type":"Feature","geometry":{"type":"Point","coordinates":[7.07777778,51.41222222]},"properties":{"name":"Wolff","stadtteil":"Überruhr","betrieb_von":"1796","betrieb_bis":"1809","liste_von":"1796","liste_bis":"1809","plan_1935":"","quelle":"https://de.wikipedia.org/wiki/Zeche_Wolff","status_1936":"stillgelegt","aktiv_1936":false,"jahre_unbekannt":false,"jahre_widerspruch":false}},{"type":"Feature","geometry":{"type":"Point","coordinates":[6.95972222,51.4725]},"properties":{"name":"Wolfsbank","stadtteil":"Borbeck-Schönebeck-Bochold","betrieb_von":"1750","betrieb_bis":"1966","liste_von":"1750","liste_bis":"1966","plan_1935":"Zeche Wolfsbank","quelle":"https://de.wikipedia.org/wiki/Zeche_Wolfsbank","status_1936":"aktiv","aktiv_1936":true,"jahre_unbekannt":false,"jahre_widerspruch":false}},{"type":"Feature","geometry":{"type":"Point","coordinates":[7.04408333,51.48652778]},"properties":{"name":"Zollverein","stadtteil":"Katernberg","betrieb_von":"1851","betrieb_bis":"1986","liste_von":"1847","liste_bis":"1986","plan_1935":"Zeche Zollverein","quelle":"https://de.wikipedia.org/wiki/Zeche_Zollverein","status_1936":"aktiv","aktiv_1936":true,"jahre_unbekannt":false,"jahre_widerspruch":true}},{"type":"Feature","geometry":{"type":"Point","coordinates":[7.005369,51.453261]},"properties":{"name":"Zur Hoffnung","stadtteil":"Südviertel, Holsterhausen","betrieb_von":"1623","betrieb_bis":"1805","liste_von":"1623","liste_bis":"1805","plan_1935":"","quelle":"https://de.wikipedia.org/wiki/Zeche_Zur_Hoffnung","status_1936":"stillgelegt","aktiv_1936":false,"jahre_unbekannt":false,"jahre_widerspruch":false}},{"type":"Feature","geometry":{"type":"Point","coordinates":[7.050004,51.403248]},"properties":{"name":"Zwergmutter","stadtteil":"Heisingen","betrieb_von":"1720","betrieb_bis":"1832","liste_von":"1720","liste_bis":"1858","plan_1935":"","quelle":"https://de.wikipedia.org/wiki/Zeche_Zwergmutter","status_1936":"stillgelegt","aktiv_1936":false,"jahre_unbekannt":false,"jahre_widerspruch":true}}]}